{"\u0421\u043a\u043e\u043f\u0458\u0435": [{"type": "node", "id": 309894643, "lat": 41.9953933, "lon": 21.4315704, "tags": {"addr:city": "\u0421\u043a\u043e\u043f\u0458\u0435", "addr:postcode": "1000", "addr:street": "\u041f\u043b\u043e\u0448\u0442\u0430\u0434 \u041c\u0430\u043a\u0435\u0434\u043e\u043d\u0438\u0458\u0430", "alt_name": "\u0414\u0430\u043b \u041c\u0435\u0442 \u0424\u0443", "amenity": "restaurant", "cuisine": "italian", "int_name": "Pelister", "name": "\u041f\u0435\u043b\u0438\u0441\u0442\u0435\u0440", "name:en": "Pelister", "opening_hours": "Mo-Th 07:00-00:00; Fr-Sa 07:00-01:00; Su 10:30-00:00", "website": "https://www.pelisterhotel.com.mk/", "wheelchair": "yes", "wheelchair:description": "Toilet not accessible"}}, {"type": "node", "id": 411006922, "lat": 41.9947432, "lon": 21.4140669, "tags": {"amenity": "restaurant", "name": "\u0418\u043d\u0442\u0435\u0440\u043c\u0435\u0446\u043e"}}, {"type": "node", "id": 429175192, "lat": 41.9768256, "lon": 21.4438183, "tags": {"amenity": "restaurant", "name": "\u0416\u0443\u0440\u043d\u0430\u043b"}}, {"type": "node", "id": 445422613, "lat": 42.0072516, "lon": 21.4871217, "tags": {"amenity": "restaurant", "cuisine": "steak_house", "name": "Hunter\u2019s Lodge \u201cKamnik\u201d", "website": "http://www.kamnik.com.mk/"}}, {"type": "node", "id": 459668143, "lat": 42.0047876, "lon": 21.4307036, "tags": {"amenity": "restaurant", "name": "\u041f\u043e\u0434 \u041a\u0430\u043b\u0435"}}, {"type": "node", "id": 459668914, "lat": 41.9943261, "lon": 21.4342799, "tags": {"amenity": "restaurant", "cuisine": "italian", "email": "contact@restorangino.mk", "level": "1", "name": "\u041a\u0430\u0458 \u040f\u0438\u043d\u043e", "name:en": "Gino", "opening_hours": "Mo 08:00-24:00, Tu,We,Fr,Sa 09:00-24:00, Th 09:00-23:00, Su 09:00-01:00", "outdoor_seating": "yes", "phone": "+389 2 3121109", "sells:ice_cream": "yes", "smoking": "outside", "website": "http://www.restorangino.mk/"}}, {"type": "node", "id": 459669063, "lat": 41.9952456, "lon": 21.4350117, "tags": {"addr:city": "C\u043ao\u043fje", "addr:city:en": "Skopje", "addr:country": "MK", "addr:housename": "Gradski Trgovski Centar Skopje", "addr:postcode": "1000", "addr:street": "\u041a\u0435\u0458 13 \u041d\u043e\u0435\u043c\u0432\u0440\u0438", "addr:street:en": "Kay 13th November", "amenity": "restaurant", "cuisine": "latin_american", "int_name": "Plaza de Toros", "name": "\u041f\u043b\u0430\u0437\u0430 \u0434\u0435 \u0422\u043e\u0440\u043e\u0441"}}, {"type": "node", "id": 481098096, "lat": 42.0031464, "lon": 21.3995191, "tags": {"amenity": "restaurant", "cuisine": "italian", "name": "\u0415\u043d\u0440\u0438\u043a\u043e"}}, {"type": "node", "id": 577538782, "lat": 42.0198926, "lon": 21.4349372, "tags": {"amenity": "restaurant", "name": "Prince"}}, {"type": "node", "id": 600905655, "lat": 42.0028498, "lon": 21.3926682, "tags": {"addr:housenumber": "158\u0430", "addr:street": "\u0425\u0435\u043b\u0441\u0438\u043d\u043a\u0438", "amenity": "restaurant", "name": "\u0414\u0432\u0435 \u043a\u0430\u043f\u043a\u0438", "name:en": "Bosphorus Turkish Restaurant"}}, {"type": "node", "id": 696669231, "lat": 41.9869006, "lon": 21.4368796, "tags": {"amenity": "restaurant", "name": "\u0438\u0412", "name:en": "iV"}}, {"type": "node", "id": 908273433, "lat": 42.0003099, "lon": 21.4367576, "tags": {"amenity": "restaurant", "cuisine": "regional", "name": "\u0422\u0443p\u0438c\u0442", "name:en": "Turist"}}, {"type": "node", "id": 1371716593, "lat": 41.9979155, "lon": 21.4122694, "tags": {"addr:housenumber": "25", "addr:street": "\u0420\u0443\u0437\u0432\u0435\u043b\u0442\u043e\u0432\u0430", "amenity": "restaurant", "name": "\u0422\u043e\u043f\u0430\u0437"}}, {"type": "node", "id": 1372568001, "lat": 42.000855, "lon": 21.3989291, "tags": {"addr:housenumber": "14", "addr:street": "\u0412\u0430\u0440\u0448\u0430\u0432\u0441\u043a\u0430", "amenity": "restaurant", "name": "\u0412\u0435\u043a\u0438"}}, {"type": "node", "id": 1377184494, "lat": 42.0013936, "lon": 21.4960141, "tags": {"amenity": "restaurant", "name": "\u0412\u0435\u043b\u043a\u043e\u0432\u043e \u041c\u0435\u0430\u043d\u0447\u0435"}}, {"type": "node", "id": 1378130151, "lat": 41.9841333, "lon": 21.4390455, "tags": {"amenity": "restaurant", "name": "\u0427\u0435\u0448\u043c\u0430"}}, {"type": "node", "id": 1378228324, "lat": 41.9710708, "lon": 21.4455687, "tags": {"amenity": "restaurant", "name": "\u0420\u0435\u0441\u0442\u043e\u0440\u0430\u043d \u0422\u0440\u043f\u0435\u0437\u0430"}}, {"type": "node", "id": 1378228333, "lat": 41.9787578, "lon": 21.4385091, "tags": {"amenity": "restaurant", "name": "\u0420\u0435\u0441\u0442\u043e\u0440\u0430\u043d \u041a\u0443\u043c"}}, {"type": "node", "id": 1380378665, "lat": 41.9997295, "lon": 21.4078483, "tags": {"addr:housenumber": "6", "addr:postcode": "1000", "addr:street": "\u0420\u0438\u043c\u0441\u043a\u0430", "amenity": "restaurant", "cuisine": "burger;regional;breakfast;grill;mediterranean;balkan;chicken;kebab", "email": "dinamic.ksk@gmail.com", "internet_access": "wlan", "name": "\u0420\u0443\u0441\u0442\u0438\u043a\u0430\u043d\u0430", "name:en": "Rustikana", "opening_hours": "Mo-Su 10:00-00:00", "operator": "Saso Gligorovski Tate", "phone": "+38971383382"}}, {"type": "node", "id": 1380378702, "lat": 41.9985008, "lon": 21.415982, "tags": {"amenity": "restaurant", "name": "\u0411\u043e\u0435\u043c\u0438"}}, {"type": "node", "id": 1535266560, "lat": 41.9782792, "lon": 21.4820381, "tags": {"amenity": "restaurant", "name": "\u0420\u0435\u0441\u0442\u043e\u0440\u0430\u043d \u0420\u0430\u0433\u0443\u0437\u0430 919", "name:en": "Restaurant Ragusa 919"}}, {"type": "node", "id": 1577483516, "lat": 42.0035286, "lon": 21.3975417, "tags": {"alt_name": "\u0421\u0442\u0430\u0440\u043e \u0431\u0443\u0440\u0435", "amenity": "restaurant", "cuisine": "international", "int_name": "Staro Bure", "name": "\u0421\u0442\u0430\u0440\u043e \u0411\u0443\u0440\u0435"}}, {"type": "node", "id": 1577485951, "lat": 42.0065185, "lon": 21.3741187, "tags": {"alt_name": "\u041a\u0430\u0458 62", "amenity": "restaurant", "cuisine": "regional", "int_name": "At 62", "name": "62"}}, {"type": "node", "id": 1676857177, "lat": 41.9843967, "lon": 21.4871492, "tags": {"amenity": "restaurant", "cuisine": "fish", "name": "\u0420\u0438\u0431\u0435\u043d \u0440\u0435\u0441\u0442\u043e\u0440\u0430\u043d \u0420\u0438\u0431\u0430\u0440 (\u041e\u0434\u0438\u0441\u0435\u0458\u0430)"}}, {"type": "node", "id": 1747649203, "lat": 41.9946274, "lon": 21.4151525, "tags": {"amenity": "restaurant", "name": "\u041a\u0440\u0447\u043c\u0430"}}, {"type": "node", "id": 1748017584, "lat": 41.9904847, "lon": 21.4204907, "tags": {"addr:city": "\u0421\u043a\u043e\u043f\u0458\u0435", "amenity": "restaurant", "cuisine": "regional", "name": "Marana", "takeaway": "yes"}}, {"type": "node", "id": 1751563134, "lat": 41.9947645, "lon": 21.4245254, "tags": {"addr:city": "C\u043ao\u043fje", "addr:city:en": "Skopje", "addr:country": "MK", "addr:housenumber": "66", "addr:street": "\u0411\u0443\u043b\u0435\u0432\u0430\u0440 \u041a\u043b\u0438\u043c\u0435\u043d\u0442 \u041e\u0445\u0440\u0438\u0434\u0441\u043a\u0438", "addr:street:en": "Kliment Ohridski Boulevard", "amenity": "restaurant", "cuisine": "international", "internet_access": "wlan", "internet_access:fee": "no", "name": "Pastel Wine & Dine", "name:en": "Pastel Wine & Dine", "opening_hours": "Mo-Fr 06:30-21:00; Sa 06:30-17:00; Su 06:30-16:00", "payment:american_express": "no", "payment:coins": "yes", "payment:maestro": "yes", "payment:mastercard": "yes", "payment:notes": "yes", "payment:visa": "yes", "payment:visa_electron": "yes", "phone": "+389 2 3214447", "smoking": "outside", "takeaway": "yes", "website": "http://pastel.mk/", "wheelchair": "yes"}}, {"type": "node", "id": 1752178268, "lat": 41.9922398, "lon": 21.4163482, "tags": {"amenity": "restaurant", "cuisine": "italian", "name": "511"}}, {"type": "node", "id": 1752186795, "lat": 41.9972291, "lon": 21.4086601, "tags": {"amenity": "restaurant", "name": "\u0410\u043a\u043e\u0440\u0434", "name:en": "Acorde"}}, {"type": "node", "id": 1770866402, "lat": 41.9987097, "lon": 21.4207447, "tags": {"addr:housename": "libertas", "addr:postcode": "1000", "addr:street": "T.C Bunjakovec prv kat lok 36", "amenity": "restaurant", "cuisine": "pizza", "description": "Coffee&pizza restaurant Libertas", "name": "\u041f\u0438\u0446\u0435\u0440\u0438\u0458\u0430 \u041b\u0438\u0431\u0435\u0440\u0442\u0430\u0441", "phone": "+38970567295"}}, {"type": "node", "id": 1848409293, "lat": 41.9775109, "lon": 21.4456487, "tags": {"amenity": "restaurant", "name": "\u0415\u043a\u0441\u043a\u043b\u0443\u0437\u0438\u0432"}}, {"type": "node", "id": 1857486052, "lat": 42.0019716, "lon": 21.4647397, "tags": {"amenity": "restaurant", "cuisine": "barbecue", "name": "\u0422\u0438\u0446\u0430 - \u0415\u043b\u0435\u043d\u0438", "name:en": "Tica-Eleni"}}, {"type": "node", "id": 1867176020, "lat": 41.9957062, "lon": 21.4304595, "tags": {"amenity": "restaurant", "cuisine": "international", "int_name": "Trend", "name": "\u0422\u0440\u0435\u043d\u0434", "name:en": "Trend", "wheelchair": "limited", "wheelchair:description": "Toilet not accessible"}}, {"type": "node", "id": 1868812117, "lat": 41.9987513, "lon": 21.4204158, "tags": {"addr:city": "C\u043ao\u043fje", "addr:postcode": "1000", "addr:street": "\u0412\u043b\u0430\u0434\u0438\u043c\u0438\u0440 \u041f\u043e\u043b\u0435\u0436\u0430\u043d\u043e\u0432\u0441\u043a\u0438", "amenity": "restaurant", "cuisine": "barbecue", "name": "\u0414\u0435\u0441\u0442\u0430\u043d", "opening_hours": "Mo-Su 09:00-23:00", "outdoor_seating": "yes", "phone": "+38923127324", "smoking": "separated", "website": "https://destan.mk/pocetna/"}}, {"type": "node", "id": 1868812169, "lat": 42.0034064, "lon": 21.3995909, "tags": {"amenity": "restaurant", "cuisine": "barbecue", "name": "\u0410\u043d\u0430 \u041a\u0440\u0438\u0441\u0442\u0438"}}, {"type": "node", "id": 1868933572, "lat": 42.0017742, "lon": 21.3992299, "tags": {"amenity": "restaurant", "cuisine": "macedonian", "name": "\u0424\u043e\u0442\u043a\u0430"}}, {"type": "node", "id": 1985948203, "lat": 41.9922245, "lon": 21.416522, "tags": {"amenity": "restaurant", "cuisine": "italian", "name": "Balila"}}, {"type": "node", "id": 1999633538, "lat": 41.9913688, "lon": 21.4280088, "tags": {"amenity": "restaurant", "name": "\u0411\u0438\u0444\u0438\u045a\u0430 - \u0420\u0430\u043c\u0441\u0442\u043e\u0440", "name:en": "Food Court Ramstore"}}, {"type": "node", "id": 2105387352, "lat": 42.0001581, "lon": 21.4252581, "tags": {"addr:city": "\u0421\u043a\u043e\u043f\u0458\u0435", "addr:city:en": "Skopje", "addr:country": "MK", "addr:housenumber": "75", "addr:street": "\u041e\u0440\u0446\u0435 \u041d\u0438\u043a\u043e\u043b\u043e\u0432", "addr:street:en": "Orce Nikolov", "amenity": "restaurant", "int_name": "Brukilnski", "name": "\u0411\u0440\u0443\u043a\u043b\u0438\u043d\u0441\u043a\u0438", "name:en": "Bruklinski", "outdoor_seating": "yes", "phone": "+389 2 6091844", "smoking": "separated", "wheelchair": "limited"}}, {"type": "node", "id": 2159535851, "lat": 41.9953199, "lon": 21.4347685, "tags": {"addr:city": "C\u043ao\u043fje", "addr:city:en": "Skopje", "addr:country": "MK", "addr:housename": "Gradski Trgovski Centar Skopje", "addr:housenumber": "2/4", "addr:postcode": "1000", "addr:street": "\u041a\u0435\u0458 13 \u041d\u043e\u0435\u043c\u0432\u0440\u0438", "addr:street:en": "Kay 13th November", "amenity": "restaurant", "cuisine": "international", "name": "\u0411\u0435\u043b\u0430 \u0432\u0438\u0441\u0442\u0430", "name:en": "Bella Vista", "opening_hours": "10:00-24:00, Fr-Sa 10:00-01:00", "website": "www.bellavistaskopje.mk"}}, {"type": "node", "id": 2294320125, "lat": 41.993167, "lon": 21.4080594, "tags": {"amenity": "restaurant", "name": "\u0414\u0432\u0430 \u0415\u043b\u0435\u043d\u0430", "name:en": "Dva Elena"}}, {"type": "node", "id": 2322886873, "lat": 41.9952825, "lon": 21.4302915, "tags": {"amenity": "restaurant", "cuisine": "regional", "int_name": "Arabeska", "name": "\u0410\u0440\u0430\u0431\u0435\u0441\u043a\u0430", "name:en": "Arabesque"}}, {"type": "node", "id": 2324290153, "lat": 42.003391, "lon": 21.3323916, "tags": {"amenity": "restaurant", "cuisine": "macedonian", "int_name": "Oreov Lad", "name": "\u041e\u0440\u0435\u043e\u0432 \u041b\u0430\u0434", "name:en": "Oreov Lad"}}, {"type": "node", "id": 2411329687, "lat": 42.0131608, "lon": 21.4117168, "tags": {"amenity": "restaurant", "cuisine": "fish", "name": "\u0424\u0438\u0448"}}, {"type": "node", "id": 2580192144, "lat": 41.9650429, "lon": 21.4727082, "tags": {"amenity": "restaurant", "int_name": "Gradina", "name": "\u0413\u0440\u0430\u0434\u0438\u043d\u0430", "name:en": "Gradina"}}, {"type": "node", "id": 2818872887, "lat": 42.0051241, "lon": 21.4145137, "tags": {"addr:city": "C\u043ao\u043fje", "addr:postcode": "1000", "addr:street": "\u0414\u0440\u0430\u0433\u0430\u043d \u0403\u0430\u043a\u043e\u043d\u043e\u0432\u0441\u043a\u0438 \u0428\u043f\u0430\u0442\u043e", "amenity": "restaurant", "int_name": "Soka\u010de", "name": "\u0421\u043e\u043a\u0430\u0447\u0435", "name:en": "Sokache", "opening_hours": "08:00 - 00:00"}}, {"type": "node", "id": 2883877896, "lat": 41.9914536, "lon": 21.4522729, "tags": {"amenity": "restaurant", "name": "Every Day"}}, {"type": "node", "id": 3101726040, "lat": 42.0000179, "lon": 21.4366005, "tags": {"addr:city": "C\u043ao\u043fje", "addr:city:en": "Skopje", "addr:country": "MK", "addr:housename": "\u041a\u0430\u043f\u0430\u043d \u0410\u041d", "addr:housename:en": "Kapan AN", "addr:housenumber": "14", "addr:postcode": "1000", "addr:street": "\u0413\u0440\u0430\u0434\u0438\u0448\u0442\u0435", "addr:street:en": "Gradiste", "amenity": "restaurant", "cuisine": "regional", "email": "pivnicaan@yahoo.com", "internet_access": "wlan", "internet_access:fee": "no", "name": "\u041f\u0438\u0432\u043d\u0438\u0446\u0430 \u0410\u041d", "name:en": "Beerhouse AN", "opening_hours": "Mo-Sa 09:00-24:00; Su 12:00-24:00", "outdoor_seating": "yes", "payment:american_express": "yes", "payment:coins": "yes", "payment:mastercard": "yes", "payment:notes": "yes", "payment:visa": "yes", "phone": "+389 02 321 2111", "smoking": "separated", "website": "http://pivnicaan.mk/"}}, {"type": "node", "id": 3341289789, "lat": 41.9925716, "lon": 21.4297981, "tags": {"addr:city": "\u0421\u043a\u043e\u043f\u0458\u0435", "addr:postcode": "1000", "addr:street": "\u041c\u0430\u043a\u0435\u0434\u043e\u043d\u0438\u0458\u0430", "amenity": "restaurant", "name": "Damaskino"}}, {"type": "node", "id": 3484100384, "lat": 41.9917018, "lon": 21.4231542, "tags": {"addr:city": "\u0421\u043a\u043e\u043f\u0458\u0435", "amenity": "restaurant", "name": "Dal Fufo - Galija"}}, {"type": "node", "id": 3505013893, "lat": 41.9947506, "lon": 21.4319604, "tags": {"addr:city": "\u0421\u043a\u043e\u043f\u0458\u0435", "addr:city:en": "Skopje", "addr:country": "MK", "addr:postcode": "1000", "addr:street": "11 \u041e\u043a\u0442\u043e\u043c\u0432\u0440\u0438", "addr:street:en": "11 Oktomvri", "amenity": "restaurant", "cuisine": "kebab", "name": "Destan", "opening_hours": "08:00-23:00", "outdoor_seating": "yes", "smoking": "separated", "wheelchair": "yes"}}, {"type": "node", "id": 3505013993, "lat": 41.9950911, "lon": 21.4317257, "tags": {"addr:city": "\u0421\u043a\u043e\u043f\u0458\u0435", "addr:city:en": "Skopje", "addr:country": "MK", "addr:housenumber": "2", "addr:postcode": "1000", "addr:street": "11 \u041e\u043a\u0442\u043e\u043c\u0432\u0440\u0438", "addr:street:en": "11 Oktomvri", "amenity": "restaurant", "cuisine": "italian", "int_name": "La Terrazza", "name": "\u041b\u0430 \u0422\u0435\u0440\u0430\u0446\u0430", "opening_hours": "08:00-24:00, Fr-Sa 08:00-01:00", "outdoor_seating": "yes", "phone": "+389 2 3113380", "smoking": "separated", "wheelchair": "yes"}}, {"type": "node", "id": 3506695093, "lat": 42.0045421, "lon": 21.3910004, "tags": {"amenity": "restaurant", "cuisine": "italian", "name": "Brooklyn Lounge Bar", "opening_hours": "08:00-00:00; Fr-Sa 08:00-01:00", "outdoor_seating": "yes", "smoking": "separated", "wheelchair": "yes"}}, {"type": "node", "id": 3536179577, "lat": 41.9953743, "lon": 21.4099065, "tags": {"addr:postcode": "1000", "addr:street": "\u041c\u0438\u0442\u0440\u043e\u043f\u043e\u043b\u0438\u0442 \u0422\u0435\u043e\u0434\u043e\u0441\u0438\u0458 \u0413\u043e\u043b\u043e\u0433\u0430\u043d\u043e\u0432", "amenity": "restaurant", "internet_access": "wlan", "name": "\u041d\u043e\u0441\u0442\u0430\u043b\u0433\u0438\u0458\u0430", "name:en": "Nostalgija", "phone": "+38923060708"}}, {"type": "node", "id": 3599403566, "lat": 41.9979148, "lon": 21.4020366, "tags": {"addr:housenumber": "1", "addr:street": "\u041f\u0440\u0430\u0448\u043a\u0430", "amenity": "restaurant", "cuisine": "regional", "delivery": "no", "name": "\u041a\u0430\u0458 \u041c\u0430\u0440\u0448\u0430\u043b\u043e\u0442", "name:en": "Kaj Marsalot", "smoking": "outside", "takeaway": "no"}}, {"type": "node", "id": 3648714485, "lat": 42.0062651, "lon": 21.4063144, "tags": {"addr:city": "C\u043ao\u043fje", "addr:housenumber": "18", "addr:postcode": "1000", "addr:street": "\u0411\u0443\u043b\u0435\u0432\u0430\u0440 8-\u043c\u0438 \u0421\u0435\u043f\u0442\u0435\u043c\u0432\u0440\u0438", "amenity": "restaurant", "name": "\u0411\u0430\u0440\u0431\u0430\u043a\u0430\u043d", "name:en": "Barbakan", "opening_hours": "08:00-01:00", "outdoor_seating": "yes"}}, {"type": "node", "id": 3707090923, "lat": 41.997226, "lon": 21.4170693, "tags": {"amenity": "restaurant", "cuisine": "regional", "name": "\u0415\u0441\u043d\u0430\u0444 \u043a\u0430\u0458 \u0434\u0430\u0440\u0435"}}, {"type": "node", "id": 3830455732, "lat": 41.9824716, "lon": 21.4725098, "tags": {"amenity": "restaurant", "name": "Pizza Amica"}}, {"type": "node", "id": 3832475135, "lat": 41.9922973, "lon": 21.4427246, "tags": {"amenity": "restaurant", "name": "\u041b\u0435\u0437\u0435\u0442"}}, {"type": "node", "id": 3832475147, "lat": 41.9922032, "lon": 21.4422139, "tags": {"amenity": "restaurant", "name": "\u041a\u0430\u0458 \u0417\u043b\u0430\u0442\u0435"}}, {"type": "node", "id": 3909066219, "lat": 42.0084895, "lon": 21.4010837, "tags": {"amenity": "restaurant", "name": "\u0431\u0435\u0434 \u0431\u0443\u043d\u0430\u0440"}}, {"type": "node", "id": 3951819586, "lat": 41.9748528, "lon": 21.4093282, "tags": {"amenity": "restaurant", "cuisine": "regional", "internet_access": "yes", "internet_access:fee": "no", "name": "\u0431\u0438\u043c\u0435\u043a\u0441", "opening_hours": "9:00-24:00", "smoking": "no", "wheelchair": "limited"}}, {"type": "node", "id": 4004645106, "lat": 41.9957324, "lon": 21.4301301, "tags": {"addr:city": "C\u043ao\u043fje", "addr:country": "MK", "addr:housenumber": "3", "addr:postcode": "1000", "addr:street": "\u041c\u0430\u043a\u0441\u0438\u043c \u0413\u043e\u0440\u043a\u0438", "addr:street:en": "Maksim Gorki", "amenity": "restaurant", "cuisine": "chinese", "email": "reservation@pekinggarden.mk", "int_name": "Peking Garden", "name": "\u041f\u0435\u043a\u0438\u043d\u0433 \u0413\u0430\u0440\u0434\u0435\u043d", "opening_hours": "Mo-Sa 11:00-24:00; Su 12:00-23:00", "phone": "+389 2 3221173", "website": "www.pekinggarden.mk"}}, {"type": "node", "id": 4016557277, "lat": 41.9856123, "lon": 21.4667276, "tags": {"addr:city": "Skopje", "addr:country": "MK", "addr:housenumber": "71A", "addr:postcode": "1000", "addr:street": "Boulevard Jane Sandanski", "amenity": "restaurant", "cuisine": "italian", "name": "Campione lounge Bar", "opening_hours": "Mo-Su 08:00-01:00", "operator": "Campione", "phone": "+389 70 250 261"}}, {"type": "node", "id": 4016557278, "lat": 41.9859376, "lon": 21.4661426, "tags": {"addr:city": "Skopje", "addr:country": "MK", "addr:housenumber": "71A", "addr:postcode": "1000", "addr:street": "Boulevard Jane Sandanski", "amenity": "restaurant", "cuisine": "french", "name": "DejaVu Lounge", "opening_hours": "Mo-Su 08:00-01:00", "operator": "DejaVu"}}, {"type": "node", "id": 4101107990, "lat": 41.9871974, "lon": 21.4365756, "tags": {"addr:street": "\u0408\u0443\u0436\u0435\u043d \u0411\u0443\u043b\u0435\u0432\u0430\u0440", "amenity": "restaurant", "internet_access": "wlan", "name": "Makedonska sofra", "opening_hours": "Mo-Sa 08:00-01:00", "phone": "+38978929010"}}, {"type": "node", "id": 4126731965, "lat": 41.9973163, "lon": 21.434577, "tags": {"amenity": "restaurant", "cuisine": "international", "name": "Sky \u0440\u0435\u0441\u0442\u043e\u0440\u0430\u043d\u043e\u0442", "name:en": "Sky Restaurant", "operator": "Hotel Stone Bridge"}}, {"type": "node", "id": 4149490289, "lat": 41.9933026, "lon": 21.4300742, "tags": {"addr:city": "\u0421\u043a\u043e\u043f\u0458\u0435", "addr:housenumber": "11", "addr:postcode": "1000", "addr:street": "\u041c\u0430\u043a\u0435\u0434\u043e\u043d\u0438\u0458\u0430", "amenity": "restaurant", "cuisine": "mexican", "email": "info@amigos.com.mk", "name": "Amigos \u041c\u0435\u043a\u0441\u0438\u043a\u0430\u043d\u0441\u043a\u0430 \u041a\u0430\u043d\u0442\u0438\u043d\u0430", "name:en": "Amigos Mexican Cantina", "opening_hours": "Mo-Th 08:00-24:00, Fr,Sa 08:00-01:00, Su 10:00-24:00", "outdoor_seating": "yes", "phone": "+389 71 230314", "smoking": "outside", "takeaway": "yes", "website": "http://www.amigos.com.mk/", "wheelchair": "yes"}}, {"type": "node", "id": 4195733217, "lat": 41.9955972, "lon": 21.4338587, "tags": {"addr:city": "C\u043ao\u043fje", "addr:city:en": "Skopje", "addr:country": "MK", "addr:housename": "Gradski Trgovski Centar Skopje", "addr:postcode": "1000", "addr:street": "\u041a\u0435\u0458 13 \u041d\u043e\u0435\u043c\u0432\u0440\u0438", "addr:street:en": "Kay 13th November", "amenity": "restaurant", "cuisine": "international", "name": "\u0421\u043e\u0443\u043b \u043a\u0438\u0447\u0435\u043d", "name:en": "Soul-Kitchen", "operator": "Soul-Kitchen", "outdoor_seating": "yes", "smoking": "outside"}}, {"type": "node", "id": 4239053639, "lat": 42.0229923, "lon": 21.4307185, "tags": {"amenity": "restaurant", "capacity": "600", "name": "Beta"}}, {"type": "node", "id": 4275843195, "lat": 41.9969599, "lon": 21.4160063, "tags": {"amenity": "restaurant", "name": "\u041b\u0430\u0432\u0447\u0435"}}, {"type": "node", "id": 4302211290, "lat": 42.0030463, "lon": 21.4002154, "tags": {"amenity": "restaurant", "cuisine": "fish", "name": "\u0411\u0430\u0431\u0435"}}, {"type": "node", "id": 4318400296, "lat": 41.9915744, "lon": 21.4655483, "tags": {"addr:housenumber": "24", "addr:street": "\u0411\u0443\u043b\u0435\u0432\u0430\u0440 \u0410\u0421\u041d\u041e\u041c", "amenity": "restaurant", "name": "\u0417\u043b\u0430\u0442\u043d\u0430 \u0432\u0438\u043b\u0443\u0448\u043a\u0430"}}, {"type": "node", "id": 4327921318, "lat": 42.0034137, "lon": 21.3986642, "tags": {"amenity": "restaurant", "cuisine": "thai", "name": "Thong Thai", "opening_hours": "Sa-Su 10:00-01:00", "operator": "Thong Thai", "payment:debit_cards": "no", "phone": "+38971661234", "smoking": "outside", "takeaway": "yes"}}, {"type": "node", "id": 4346542839, "lat": 41.9927317, "lon": 21.4301208, "tags": {"amenity": "restaurant", "internet_access": "wlan", "name": "Lounge Bar & Restaurant \"Square 21\""}}, {"type": "node", "id": 4355675606, "lat": 41.9788465, "lon": 21.4826074, "tags": {"amenity": "restaurant", "name": "\u0420\u0435\u0441\u0442\u043e\u0440\u0430\u043d \u0417\u043b\u0430\u0442\u043d\u0438\u043a"}}, {"type": "node", "id": 4406532855, "lat": 41.9953546, "lon": 21.3679919, "tags": {"amenity": "restaurant", "cuisine": "local", "name": "\u0412\u0438\u043b\u0430 \u0412\u0435\u0440\u0430\u043d\u0434\u0430", "name:en": "Vila Veranda", "smoking": "outside"}}, {"type": "node", "id": 4407370494, "lat": 41.9883207, "lon": 21.4520843, "tags": {"amenity": "restaurant", "internet_access": "wlan", "name": "\u0435\u043a\u0432\u0435\u0441\u0442\u0440\u0438\u0458\u0430\u043d", "name:en": "equestrian", "name:mk": "\u0435\u043a\u0432\u0435\u0441\u0442\u0440\u0438\u0458\u0430\u043d"}}, {"type": "node", "id": 4436518191, "lat": 41.9996618, "lon": 21.4362461, "tags": {"amenity": "restaurant", "name": "Kaj Serdarot", "name:mk": "Kaj Cerdarot"}}, {"type": "node", "id": 4436534289, "lat": 41.9996701, "lon": 21.436081, "tags": {"amenity": "restaurant", "name": "Destan", "name:mk": "Destan"}}, {"type": "node", "id": 4436534489, "lat": 41.9994953, "lon": 21.4355402, "tags": {"amenity": "restaurant", "name": "\u0410\u0432\u0441\u0442\u0440\u0438\u0441\u043a\u0430 \u043f\u0430\u043b\u0442\u0430", "name:en": "Austrian Palace", "name:mk": "Austrian Palace"}}, {"type": "node", "id": 4459578969, "lat": 41.9949989, "lon": 21.4355402, "tags": {"addr:city": "C\u043ao\u043fje", "addr:city:en": "Skopje", "addr:country": "MK", "addr:housename": "Gradski Trgovski Centar Skopje", "addr:postcode": "1000", "addr:street": "\u041a\u0435\u0458 13 \u041d\u043e\u0435\u043c\u0432\u0440\u0438", "addr:street:en": "Kay 13th November", "amenity": "restaurant", "cuisine": "international", "int_name": "Amica", "level": "1", "name": "\u0410\u043c\u0438\u043a\u0430"}}, {"type": "node", "id": 4471884330, "lat": 42.0059792, "lon": 21.427293, "tags": {"amenity": "restaurant", "cuisine": "international;italian;fish", "internet_access": "wlan", "internet_access:fee": "no", "name": "Four", "operator": "Hotel Park Spa", "outdoor_seating": "yes", "smoking": "outside"}}, {"type": "node", "id": 4481662566, "lat": 41.995703, "lon": 21.4335119, "tags": {"amenity": "restaurant", "cuisine": "italian", "int_name": "Dion", "name": "\u0414\u0438\u043e\u043d"}}, {"type": "node", "id": 4491144570, "lat": 42.0045887, "lon": 21.3936186, "tags": {"addr:city": "C\u043ao\u043fje", "addr:postcode": "1000", "addr:street": "\u041d\u0438\u043a\u043e\u043b\u0430 \u0420\u0443\u0441\u0438\u043d\u0441\u043a\u0438", "air_conditioning": "yes", "amenity": "restaurant", "cuisine": "regional;international;barbecue", "image": "https://scontent.fskp2-1.fna.fbcdn.net/v/t1.6435-9/254432038_112012584617159_9006799328489950254_n.jpg?_nc_cat=110&ccb=1-5&_nc_sid=09cbfe&_nc_ohc=hMgZ3S6wc48AX_KXprI&_nc_ht=scontent.fskp2-1.fna&oh=42c7afe4f9d7cb3a15bb41cb20cafc03&oe=61AE29FC", "internet_access": "wlan", "name": "\u0420\u0435\u0441\u0442\u043e\u0440\u0430\u043d \u0411\u0443\u0440\u0435 \u0421\u0440\u043d\u0430", "name:en": "Restaurant Bure Srna", "opening_hours": "Mo-Su 08:00-00:00", "opening_hours:covid19": "same", "outdoor_seating": "yes", "phone": "+38923066676", "reservation": "yes", "smoking": "outside", "start_date": "2000", "takeaway": "yes", "website": "https://buresrna.mk/"}}, {"type": "node", "id": 4531682389, "lat": 41.9959806, "lon": 21.4021635, "tags": {"addr:housenumber": "63", "addr:postcode": "1000", "addr:street": "\u041c\u0438\u0442\u0440\u043e\u043f\u043e\u043b\u0438\u0442 \u0422\u0435\u043e\u0434\u043e\u0441\u0438\u0458 \u0413\u043e\u043b\u043e\u0433\u0430\u043d\u043e\u0432", "amenity": "restaurant", "cuisine": "burger;regional;ice_cream;grill;crepe;coffee_shop;balkan;pancake;chicken;diner;fish;breakfast;tea;sausage;local;fine_dining;kebab;barbecue", "email": "contact@makedonskakuka.com", "internet_access": "wlan", "name": "\u041c\u0430\u043a\u0435\u0434\u043e\u043d\u0441\u043a\u0430 \u043a\u0443\u045c\u0430", "name:en": "Macedonian House Restaurant", "opening_hours": "Mo-Su 08:00-00:00", "operator": "Kiro Ilijeski -Kambero", "phone": "+38923296415", "website": "http://www.makedonskakuka.com"}}, {"type": "node", "id": 4552084306, "lat": 42.0030521, "lon": 21.4648097, "tags": {"amenity": "restaurant", "cuisine": "regional", "name": "\u041a\u0430\u0458 \u0422\u043e\u0448\u0435 \u043d\u0430 \u040c\u043e\u0448\u0435"}}, {"type": "node", "id": 4650542892, "lat": 41.9932328, "lon": 21.5078989, "tags": {"addr:street": "\u041f\u0430\u0440\u0438\u0441\u043a\u0430 \u041a\u043e\u043c\u0443\u043d\u0430", "amenity": "restaurant", "name": "\u0413\u043e\u0441\u0442\u0438\u043b\u043d\u0438\u0446\u0430 \u0421\u043e\u0444\u0440\u0430", "name:en": "Gostilnica Sofra"}}, {"type": "node", "id": 4650625589, "lat": 41.9951884, "lon": 21.5099084, "tags": {"amenity": "restaurant", "name": "\u041f\u0438\u0446\u0435\u0440\u0438\u0458\u0430 \u041a\u0440\u0435\u043c\u0438\u0441\u0438\u043c\u043e", "name:en": "Picerija Kremisimo"}}, {"type": "node", "id": 4720703993, "lat": 41.9978436, "lon": 21.4600445, "tags": {"addr:postcode": "1000", "amenity": "restaurant", "name": "Dojrana Skopje", "name:mk": "\u0414\u043e\u0458\u0440\u0430\u043d\u0430"}}, {"type": "node", "id": 4838686622, "lat": 42.0060914, "lon": 21.4069546, "tags": {"addr:street": "\u0411\u0443\u043b\u0435\u0432\u0430\u0440 8-\u043c\u0438 \u0421\u0435\u043f\u0442\u0435\u043c\u0432\u0440\u0438", "amenity": "restaurant", "cuisine": "regional", "name": "Bonimi", "name:en": "Bonimi", "name:mk": "Bonimi", "opening_hours": "Mo-Su 20:00-24:00", "outdoor_seating": "yes", "website": "https://m.facebook.com/bonimimkd/"}}, {"type": "node", "id": 4976334922, "lat": 41.9913259, "lon": 21.4640869, "tags": {"amenity": "restaurant", "name": "\u0422'\u0433\u0430 \u0437\u0430 \u0458\u0443\u0433", "name:en": "T'ga za jug", "name:mk": "\u0422'\u0433\u0430 \u0437\u0430 \u0458\u0443\u0433"}}, {"type": "node", "id": 4990142138, "lat": 42.0195979, "lon": 21.4412533, "tags": {"addr:housenumber": "1", "addr:street": "\u0420\u0435\u0441\u0435\u043d\u0441\u043a\u0430", "amenity": "restaurant", "name": "\u0411\u0438\u0437\u043d\u0438\u0441", "name:mk": "\u0411\u0438\u0437\u043d\u0438\u0441"}}, {"type": "node", "id": 5019758021, "lat": 42.0039853, "lon": 21.4280925, "tags": {"amenity": "restaurant", "name": "\u041f\u0430\u0440\u043a", "name:en": "Park"}}, {"type": "node", "id": 5033108253, "lat": 42.0005946, "lon": 21.4191901, "tags": {"addr:city": "C\u043ao\u043fje", "addr:housenumber": "4", "addr:postcode": "1000", "addr:street": "\u0420\u0430\u0434\u045a\u0430\u043d\u0441\u043a\u0430", "amenity": "restaurant", "capacity": "100", "cuisine": "burger;coffee_shop;sandwich;ice_cream", "name": "\u041a\u0430\u043d\u0442\u0438\u043d\u0430", "opening_hours": "Monday- Satudray 09:00-24:00", "outdoor_seating": "yes", "smoking": "outside", "takeaway": "yes"}}, {"type": "node", "id": 5072397092, "lat": 41.9914306, "lon": 21.4633394, "tags": {"amenity": "restaurant", "name": "\u041f\u0438\u0446\u0435\u0440\u0438\u0458\u0430 \u0424\u0430\u043c\u0438\u043b\u0438\u0458\u0430", "name:en": "Pizza Familija"}}, {"type": "node", "id": 5131832941, "lat": 41.9948293, "lon": 21.4276093, "tags": {"addr:city": "C\u043ao\u043fje", "addr:housenumber": "7", "addr:postcode": "1000", "addr:street": "\u0414\u0430\u043c\u0435 \u0413\u0440\u0443\u0435\u0432", "amenity": "restaurant", "cuisine": "grill", "email": "info@7.mk", "name": "7 \u0421\u043a\u0430\u0440\u0430 \u0420\u0435\u0441\u0442\u043e\u0440\u0430\u043d", "name:en": "7 Grill Restaurant", "opening_hours": "Mo-Th 08:00-24:00; Sa 08:00-01:00", "outdoor_seating": "yes", "phone": "+38923224000", "takeaway": "yes", "website": "http://7.mk/skara-restoran/"}}, {"type": "node", "id": 5160613722, "lat": 41.9899769, "lon": 21.4492023, "tags": {"addr:city": "C\u043ao\u043fje", "addr:housenumber": "15", "addr:postcode": "1000", "addr:street": "\u0411\u0443\u043b\u0435\u0432\u0430\u0440 \u041a\u0443\u0437\u043c\u0430\u043d \u0408\u043e\u0441\u0438\u0444\u043e\u0432\u0441\u043a\u0438 \u041f\u0438\u0442\u0443", "amenity": "restaurant", "internet_access": "wlan", "name": "\u041c\u0435\u0437\u0435 \u0411\u0430\u0440", "name:en": "Meze Bar", "opening_hours": "Fr-Su 08:00-01:00; Su 08:00-17:00; Mo-Th 08:00-00:00", "opening_hours:covid19": "same", "phone": "+38926121214", "website": "https://www.facebook.com/mezebarskopjanka/"}}, {"type": "node", "id": 5184727125, "lat": 42.0084679, "lon": 21.3678533, "tags": {"addr:housenumber": "2", "addr:postcode": "1000", "addr:street": "\u0411\u0443\u043b\u0435\u0432\u0430\u0440 \u0403\u043e\u0440\u0447\u0435 \u041f\u0435\u0442\u0440\u043e\u0432", "amenity": "restaurant", "internet_access": "wlan", "name": "Ubac", "phone": "+38972555005"}}, {"type": "node", "id": 5224224121, "lat": 41.9916485, "lon": 21.4223088, "tags": {"addr:postcode": "1000", "amenity": "restaurant", "email": "ristovskidac@yahoo.com", "internet_access": "wlan", "name": "Gostilnica Gurman", "name:en": "guest house Gurman", "opening_hours": "Mo-Su 07:00-22:00", "phone": "+38923176200"}}, {"type": "node", "id": 5246219203, "lat": 41.9868025, "lon": 21.4193986, "tags": {"amenity": "restaurant", "cuisine": "macedonian", "name": "\u0411\u0430\u0431\u0430 \u0426\u0430\u043d\u0430", "name:en": "Baba Cana"}}, {"type": "node", "id": 5268700370, "lat": 42.0044372, "lon": 21.3931934, "tags": {"addr:city": "C\u043ao\u043fje", "addr:housenumber": "15", "addr:postcode": "1000", "addr:street": "\u041d\u0438\u043a\u043e\u043b\u0430 \u0420\u0443\u0441\u0438\u043d\u0441\u043a\u0438", "amenity": "restaurant", "cuisine": "pizza", "delivery": "yes", "name": "Pizza Jakomo", "outdoor_seating": "yes", "phone": "+37976338668;+38978338668", "website": "http://www.pizzajakomo.com/"}}, {"type": "node", "id": 5289706561, "lat": 41.9913338, "lon": 21.4276864, "tags": {"amenity": "restaurant", "name": "Star Ocean"}}, {"type": "node", "id": 5292130848, "lat": 42.0005187, "lon": 21.4149006, "tags": {"amenity": "restaurant", "name": "Fitness house"}}, {"type": "node", "id": 5467884712, "lat": 41.9837709, "lon": 21.4808444, "tags": {"amenity": "restaurant", "delivery": "yes", "name": "Segreto Plus"}}, {"type": "node", "id": 5548809221, "lat": 41.9995926, "lon": 21.4366123, "tags": {"amenity": "restaurant", "cuisine": "local;barbecue", "name": "\u043a\u0430\u0458 \u0441\u0435\u0440\u0434\u0430\u0440\u043e\u0442", "name:en": "Kaj Serdarot", "outdoor_seating": "yes"}}, {"type": "node", "id": 5561692079, "lat": 41.9729164, "lon": 21.4565032, "tags": {"amenity": "restaurant", "name": "\u0422\u0430\u0440\u0430\u043f\u0430\u043d\u0430"}}, {"type": "node", "id": 5572053321, "lat": 42.0013292, "lon": 21.4205747, "tags": {"addr:postcode": "1000", "addr:street": "\u0416\u0438\u0432\u043a\u043e \u0427\u0438\u043d\u0433\u043e", "amenity": "restaurant", "cuisine": "chicken;diner;beef_bowl;american;ice_cream;local;tea;pizza;burger;cake;pasta;french;italian_pizza;seafood;crepe;pancake;sandwich;coffee_shop;balkan;mediterranean;croatian;fish;kebab;breakfast;grill", "diet:vegan": "yes", "internet_access": "wlan", "name": "\u0414\u0435\u0431\u0430\u0440 \u041c\u0430\u0430\u043b\u043e", "name:en": "Debar Maalo", "opening_hours": "Su-Th 08:00-00:30; Fr-Sa 08:00-01:00", "phone": "+38976219654"}}, {"type": "node", "id": 5624670966, "lat": 42.0023813, "lon": 21.4235595, "tags": {"addr:housenumber": "80", "addr:postcode": "1000", "addr:street": "\u0411\u0443\u043b\u0435\u0432\u0430\u0440 \u0418\u043b\u0438\u043d\u0434\u0435\u043d", "amenity": "restaurant", "cuisine": "balkan", "email": "mezebarmcm@gmail.com", "internet_access": "wlan", "name": "\u041c\u0426\u041c \u041c\u0435\u0437\u0435 \u0411\u0430\u0440", "name:en": "MCM Meze Bar", "opening_hours": "24/7", "phone": "+38970250420"}}, {"type": "node", "id": 5624682355, "lat": 42.0028235, "lon": 21.4239655, "tags": {"amenity": "restaurant", "name": "\u041a\u043e\u0441\u0442\u0430\u0440\u0438\u043a\u0430", "name:en": "Kostarika"}}, {"type": "node", "id": 5624682356, "lat": 42.003366, "lon": 21.4242333, "tags": {"amenity": "restaurant", "name": "\u041a\u0430\u043b\u0430\u0431\u0430\u043b\u0430\u043a", "name:en": "Kalabalak", "old_name": "\u0421\u043a\u0430\u043b\u0430"}}, {"type": "node", "id": 5624682357, "lat": 42.0028813, "lon": 21.4240111, "tags": {"amenity": "restaurant", "name": "\u0421\u0442\u0430\u0440\u043e \u0421\u043a\u0443\u043f\u0438", "name:en": "Staro Skupi"}}, {"type": "node", "id": 5624682358, "lat": 42.0030128, "lon": 21.4240218, "tags": {"amenity": "restaurant", "cuisine": "pizza", "name": "\u0417\u0430\u043d\u0437\u0438\u0431\u0430\u0440", "name:en": "Zanzibar"}}, {"type": "node", "id": 5626432520, "lat": 42.0013712, "lon": 21.4210921, "tags": {"amenity": "restaurant", "name": "\u0418\u0434\u0430\u0434\u0438\u0458\u0430", "name:en": "Idadija"}}, {"type": "node", "id": 5626433431, "lat": 42.001453, "lon": 21.4214837, "tags": {"amenity": "restaurant", "name": "\u041d\u0430\u045f\u0430\u043a", "name:en": "Nadzak"}}, {"type": "node", "id": 5626433457, "lat": 42.0010941, "lon": 21.4206632, "tags": {"amenity": "restaurant", "name": "Zing", "name:en": "Fruti Di Mare"}}, {"type": "node", "id": 5626433480, "lat": 42.0007591, "lon": 21.420049, "tags": {"amenity": "restaurant", "name": "\u0414\u0435\u0431\u0430\u0440 \u041c\u0430\u0430\u043b\u043e", "name:en": "Gostilnica Ilinden"}}, {"type": "node", "id": 5626433502, "lat": 42.0014888, "lon": 21.4208615, "tags": {"amenity": "restaurant", "name": "\u041a\u0430\u0458 \u041f\u0435\u0440\u043e", "name:en": "Kaj Pero"}}, {"type": "node", "id": 5692608680, "lat": 41.9990664, "lon": 21.4236496, "tags": {"amenity": "restaurant", "cuisine": "kebab", "name": "Gostilnica Estel", "operator": "Estel", "outdoor_seating": "yes"}}, {"type": "node", "id": 5770427174, "lat": 42.0063483, "lon": 21.3740403, "tags": {"amenity": "restaurant", "name": "Aleksandrija"}}, {"type": "node", "id": 5789449053, "lat": 41.9995917, "lon": 21.4361151, "tags": {"amenity": "restaurant", "cuisine": "local", "internet_access": "wlan", "name": "\u0421\u041d\u041e\u0428\u0422\u0418 \u041c\u0418\u041d\u0410\u0412", "name:en": "SNOSTI MINAV"}}, {"type": "node", "id": 5813417254, "lat": 42.0009079, "lon": 21.4200655, "tags": {"addr:postcode": "1000", "addr:street": "\u0416\u0438\u0432\u043a\u043e \u0427\u0438\u043d\u0433\u043e", "amenity": "restaurant", "cuisine": "savory_pancakes;german;chicken;diner;american;local;barbecue;tea;fine_dining;cake;pasta;international;french;greek;seafood;fish_and_chips;pancake;sandwich;coffee_shop;balkan;mediterranean;croatian;ramen;turkish;fish;kebab;grill", "diet:vegan": "yes", "internet_access": "wlan", "name": "\u041a\u0430\u0444\u0430\u043d\u0430 \"\u0414\u0435\u0431\u0430\u0440 \u041c\u0430\u0430\u043b\u043e\"", "name:en": "Kafana \"Debar Maalo\"", "opening_hours": "Mo-Th 08:00-00:00; Fr-Su 08:00-01:00", "phone": "+38971279660"}}, {"type": "node", "id": 5840484087, "lat": 42.0031615, "lon": 21.4001853, "tags": {"amenity": "restaurant", "cuisine": "macedonian", "name": "\u0411\u0443\u0440\u0435"}}, {"type": "node", "id": 6032865286, "lat": 42.0002786, "lon": 21.4371953, "tags": {"amenity": "restaurant", "cuisine": "barbecue;local", "name": "P\u00e7ela"}}, {"type": "node", "id": 6054050099, "lat": 41.9947932, "lon": 21.4135121, "tags": {"amenity": "restaurant", "name": "\u0412\u043e\u0434\u0435\u043d\u0438\u0446\u0430"}}, {"type": "node", "id": 6102488864, "lat": 41.9959518, "lon": 21.4199442, "tags": {"alt_name": "Gostilnica Frosina", "amenity": "restaurant", "cuisine": "local", "name": "Restoran Frosina"}}, {"type": "node", "id": 6268687385, "lat": 41.9826324, "lon": 21.4520444, "tags": {"amenity": "restaurant", "name": "Gala Kujna"}}, {"type": "node", "id": 6275187295, "lat": 42.0365961, "lon": 21.4462164, "tags": {"amenity": "restaurant", "name": "EZO"}}, {"type": "node", "id": 6278471769, "lat": 42.0127048, "lon": 21.4100468, "tags": {"amenity": "restaurant", "name": "\u041c\u0435\u0430\u043d\u0430 \u0411 \u0408\u0430\u0432\u043e\u0440 \u041c\u0440\u0437\u0435\u043d\u0446\u0438"}}, {"type": "node", "id": 6386335236, "lat": 41.9996644, "lon": 21.4362086, "tags": {"amenity": "restaurant", "name": "Kaj \u0413\u043e\u0446\u0435"}}, {"type": "node", "id": 6405264185, "lat": 41.9856161, "lon": 21.4670662, "tags": {"addr:postcode": "1000", "amenity": "restaurant", "cuisine": "pizza", "name": "\u041f\u0438\u0446\u0435\u0440\u0438\u0458\u0430 \"\u0414\u0435\u043d\u0438\"", "name:en": "Pizza \"Deni\"", "phone": "+38976346201"}}, {"type": "node", "id": 6586691822, "lat": 41.9819646, "lon": 21.4681708, "tags": {"amenity": "restaurant", "name": "La Pizza", "phone": "+38972575756"}}, {"type": "node", "id": 6781335887, "lat": 41.999319, "lon": 21.4360459, "tags": {"amenity": "restaurant", "name": "Kebap\u010dilinica Rio", "name:en": "Grill House Rio"}}, {"type": "node", "id": 6788977446, "lat": 41.9995518, "lon": 21.4131738, "tags": {"addr:housenumber": "20", "amenity": "restaurant", "name": "Vega"}}, {"type": "node", "id": 6796436088, "lat": 42.0015097, "lon": 21.4381319, "tags": {"amenity": "restaurant", "name": "\u0421\u0430\u0440\u0430\u0435\u0432\u043e", "name:en": "Saraj", "opening_hours": "Mo-Su 07:30-19:00"}}, {"type": "node", "id": 6814231688, "lat": 42.0006226, "lon": 21.4364213, "tags": {"amenity": "restaurant", "name": "Tako mako"}}, {"type": "node", "id": 6814231700, "lat": 42.0003594, "lon": 21.4372514, "tags": {"amenity": "restaurant", "name": "Ohrid"}}, {"type": "node", "id": 6814231702, "lat": 41.9969456, "lon": 21.4285563, "tags": {"amenity": "restaurant", "name": "Markt kitchen"}}, {"type": "node", "id": 6814231793, "lat": 42.0002543, "lon": 21.4374652, "tags": {"amenity": "restaurant", "name": "Sac"}}, {"type": "node", "id": 6814236587, "lat": 42.0019483, "lon": 21.4224937, "tags": {"amenity": "restaurant", "name": "Skopsko"}}, {"type": "node", "id": 6814236621, "lat": 42.002112, "lon": 21.4385882, "tags": {"amenity": "restaurant", "name": "Palas"}}, {"type": "node", "id": 6814245589, "lat": 42.0017089, "lon": 21.4219242, "tags": {"amenity": "restaurant", "name": "Schpajs", "name:mk": "\u0428\u043f\u0430\u0458\u0437"}}, {"type": "node", "id": 6814246691, "lat": 42.0005272, "lon": 21.436443, "tags": {"amenity": "restaurant", "name": "Don Giovanni"}}, {"type": "node", "id": 6814246724, "lat": 41.9999786, "lon": 21.4373399, "tags": {"amenity": "restaurant", "name": "Concept"}}, {"type": "node", "id": 6815434686, "lat": 42.0016292, "lon": 21.4382061, "tags": {"amenity": "restaurant", "name": "Plaset", "name:en": "Restoran Saraj", "opening_hours": "Mo-Su 07:00-02:00"}}, {"type": "node", "id": 6815434691, "lat": 41.9971719, "lon": 21.4086507, "tags": {"amenity": "restaurant", "name": "\u041c\u043b\u0435\u0447\u0435\u043d \u0411\u0430\u0440"}}, {"type": "node", "id": 6815454785, "lat": 41.9945241, "lon": 21.4244578, "tags": {"amenity": "restaurant", "name": "\u0411\u0443\u043a\u0435\u0442"}}, {"type": "node", "id": 6815918386, "lat": 41.9963262, "lon": 21.4243264, "tags": {"amenity": "restaurant", "name": "Mosh"}}, {"type": "node", "id": 6815931392, "lat": 42.0026188, "lon": 21.4186405, "tags": {"amenity": "restaurant", "name": "Metzka"}}, {"type": "node", "id": 6821158588, "lat": 41.9942446, "lon": 21.4243092, "tags": {"amenity": "restaurant", "name": "Davidoff"}}, {"type": "node", "id": 6827032731, "lat": 42.0027517, "lon": 21.4415279, "tags": {"amenity": "restaurant", "name": "Pizzeria Bik"}}, {"type": "node", "id": 6827032733, "lat": 42.0011296, "lon": 21.4380383, "tags": {"amenity": "restaurant", "name": "Old Balkan"}}, {"type": "node", "id": 6827076186, "lat": 42.0025774, "lon": 21.4371206, "tags": {"amenity": "restaurant", "name": "Kursumli An"}}, {"type": "node", "id": 7001354685, "lat": 42.0030579, "lon": 21.4009703, "tags": {"amenity": "restaurant", "name": "\u0411\u0443\u0440\u0435 \u043b\u0435\u043f\u0442\u043e\u043a\u0430\u0440\u0438\u0458\u0430", "name:en": "Bure Leptokarija"}}, {"type": "node", "id": 7027229685, "lat": 41.993295, "lon": 21.4352029, "tags": {"amenity": "restaurant", "name": "\u0420\u0435\u0441\u0442\u043e\u0440\u0430\u043d \u041d\u0430\u0446\u0438\u043e\u043d\u0430\u043b", "name:en": "Restaurant National"}}, {"type": "node", "id": 7027229686, "lat": 41.996324, "lon": 21.4283137, "tags": {"amenity": "restaurant", "name": "\u041a\u0430\u0458 \u0408\u043e\u043b\u0435", "name:en": "Kaj Jole"}}, {"type": "node", "id": 7093171485, "lat": 42.0062237, "lon": 21.4157772, "tags": {"addr:street": "\u0411\u0443\u043b\u0435\u0432\u0430\u0440 \u0418\u043b\u0438\u043d\u0434\u0435\u043d", "amenity": "restaurant", "cuisine": "barbecue;burger;american;breakfast;balkan", "internet_access": "wlan", "name": "\u0420\u043e\u043a \u041a\u0430\u0444\u0430\u043d\u0430 \u0420\u0443\u0441\u0442\u0438\u043a\u0430\u043d\u0430 2.0", "name:en": "Rock Kafana Rustikana 2.0", "opening_hours": "Mo-Sa 10:00-24:00"}}, {"type": "node", "id": 7130929832, "lat": 42.0046693, "lon": 21.4147058, "tags": {"addr:city": "C\u043ao\u043fje", "addr:postcode": "1000", "addr:street": "\u041e\u0440\u0446\u0435 \u041d\u0438\u043a\u043e\u043b\u043e\u0432", "air_conditioning": "yes", "amenity": "restaurant", "cuisine": "international", "delivery": "no", "name": "\u0421\u043a\u0430\u0434\u0430\u0440\u043b\u0438\u0458\u0430", "outdoor_seating": "yes", "phone": "+38923052717", "reservation": "yes", "smoking": "separated", "website": "https://restoran-skadarlija-skopje.business.site/"}}, {"type": "node", "id": 8094057485, "lat": 41.9974684, "lon": 21.4097614, "tags": {"addr:city": "C\u043ao\u043fje", "addr:housenumber": "21", "addr:postcode": "1000", "addr:street": "\u0410\u0442\u0438\u043d\u0441\u043a\u0430", "amenity": "restaurant", "name": "\u0421\u0438\u0434\u0440\u043e"}}, {"type": "node", "id": 8745631651, "lat": 41.9942708, "lon": 21.4276555, "tags": {"addr:city": "C\u043ao\u043fje", "addr:housenumber": "7", "addr:street": "\u0414\u0430\u043c\u0435 \u0413\u0440\u0443\u0435\u0432", "amenity": "restaurant", "diet:sugar_free": "yes", "diet:vegan": "yes", "diet:vegetarian": "yes", "name": "Paradise Food", "opening_hours": "Mo-Th 08:00-20:00; Fr 08:00-16:00; Su 08:00-20:00", "phone": "+389 76 424 104", "website": "https://www.facebook.com/paradisefood.mk/"}}, {"type": "node", "id": 8807124420, "lat": 42.0091204, "lon": 21.3855189, "tags": {"amenity": "restaurant", "changing_table": "no", "changing_table:fee": "no", "name": "\u041a\u0430\u0458 \u0447\u0438\u0447\u043e 2", "opening_hours": "Mo-Sa 09:00-24:00; Su 12:00-20:00", "outdoor_seating": "yes", "reservation": "yes", "smoking": "outside", "takeaway": "yes", "toilets": "yes", "toilets:access": "customers", "toilets:wheelchair": "no"}}, {"type": "node", "id": 8948359876, "lat": 41.9866451, "lon": 21.4542028, "tags": {"amenity": "restaurant", "name": "Equilibrium"}}, {"type": "node", "id": 9200216340, "lat": 42.0006689, "lon": 21.4142957, "tags": {"amenity": "restaurant", "name": "Mexican street food"}}, {"type": "node", "id": 9200216346, "lat": 41.997055, "lon": 21.4171327, "tags": {"amenity": "restaurant", "name": "Boko"}}], "\u041a\u0430\u0432\u0430\u0434\u0430\u0440\u0446\u0438": [{"type": "node", "id": 382645252, "lat": 41.4347276, "lon": 22.0215553, "tags": {"amenity": "restaurant", "name": "Brioni"}}, {"type": "node", "id": 386705447, "lat": 41.4412063, "lon": 22.0115107, "tags": {"amenity": "restaurant", "name": "Ramazzoti"}}, {"type": "node", "id": 386705584, "lat": 41.4410295, "lon": 22.0096102, "tags": {"amenity": "restaurant", "name": "Exclusive"}}, {"type": "node", "id": 419829216, "lat": 41.4412564, "lon": 22.0111128, "tags": {"amenity": "restaurant", "name": "Kico"}}, {"type": "node", "id": 419829221, "lat": 41.4407867, "lon": 22.0135418, "tags": {"amenity": "restaurant", "name": "Riben restorant"}}, {"type": "node", "id": 419829868, "lat": 41.4331716, "lon": 22.0116142, "tags": {"amenity": "restaurant", "cuisine": "regional", "name": "Aleksandrija"}}, {"type": "node", "id": 427013440, "lat": 41.4411582, "lon": 22.0121336, "tags": {"amenity": "restaurant", "name": "Spandja"}}, {"type": "node", "id": 478041022, "lat": 41.4337258, "lon": 22.0136796, "tags": {"amenity": "restaurant", "cuisine": "regional", "name": "Makedonska Kuka"}}, {"type": "node", "id": 521505926, "lat": 41.4389417, "lon": 22.0187521, "tags": {"amenity": "restaurant", "name": "Moneta"}}, {"type": "node", "id": 911176033, "lat": 41.4347168, "lon": 22.004638, "tags": {"amenity": "restaurant", "name": "Moskva"}}, {"type": "node", "id": 1596475596, "lat": 41.4334495, "lon": 22.0228438, "tags": {"amenity": "restaurant", "cuisine": "regional", "int_name": "Wine House", "name": "\u0412\u0438\u043d\u0441\u043a\u0430 \u041a\u0443\u045c\u0430"}}, {"type": "node", "id": 2535205987, "lat": 41.4327641, "lon": 22.0130335, "tags": {"amenity": "restaurant", "name": "Buki"}}, {"type": "node", "id": 6665290230, "lat": 41.3956964, "lon": 21.9710192, "tags": {"amenity": "restaurant", "name": "Restaurant"}}], "\u0421\u0442\u0430\u0440 \u0414\u043e\u0458\u0440\u0430\u043d": [{"type": "node", "id": 393755446, "lat": 41.1844141, "lon": 22.7220346, "tags": {"amenity": "restaurant", "cuisine": "fish;grill", "internet_access": "wlan", "name": "\u0424\u0443\u043a \u0422\u0430\u043a"}}, {"type": "node", "id": 7124138452, "lat": 41.1839779, "lon": 22.7224768, "tags": {"addr:city": "\u0421\u0442\u0430\u0440 \u0414\u043e\u0458\u0440\u0430\u043d", "addr:postcode": "1487", "addr:street": "\u041c\u0430\u0440\u0448\u0430\u043b \u0422\u0438\u0442\u043e", "amenity": "restaurant", "name": "\u0422\u043e\u0431\u0438"}}, {"type": "node", "id": 7124138462, "lat": 41.1835605, "lon": 22.7229174, "tags": {"addr:city": "\u0421\u0442\u0430\u0440 \u0414\u043e\u0458\u0440\u0430\u043d", "addr:postcode": "1487", "addr:street": "\u041c\u0430\u0440\u0448\u0430\u043b \u0422\u0438\u0442\u043e", "amenity": "restaurant", "cuisine": "pizza;greek", "name": "\u0420\u0435\u0441\u0442\u043e\u0440\u0430\u043d \u0412\u0430\u0432\u0438\u043b\u043e\u043d", "opening_hours": "Mo-Su 08:00-23:00", "phone": "034225122"}}, {"type": "node", "id": 7124138463, "lat": 41.1833727, "lon": 22.7230699, "tags": {"addr:city": "\u0421\u0442\u0430\u0440 \u0414\u043e\u0458\u0440\u0430\u043d", "addr:postcode": "1487", "addr:street": "\u041c\u0430\u0440\u0448\u0430\u043b \u0422\u0438\u0442\u043e", "amenity": "restaurant", "name": "\u0411\u043e\u0435\u043c\u0438", "opening_hours": "Mo-Su 08:00-23:00"}}, {"type": "node", "id": 7124138464, "lat": 41.1834248, "lon": 22.7232486, "tags": {"addr:city": "\u0421\u0442\u0430\u0440 \u0414\u043e\u0458\u0440\u0430\u043d", "addr:postcode": "1487", "addr:street": "\u041a\u0430\u0458 5 \u0442\u0438 \u041d\u043e\u0435\u043c\u0432\u0440\u0438", "amenity": "restaurant", "name": "\u041a\u0430\u0437\u0430\u0431\u043b\u0430\u043d\u043a\u0430"}}, {"type": "node", "id": 7124138465, "lat": 41.1830341, "lon": 22.7233718, "tags": {"addr:city": "\u0421\u0442\u0430\u0440 \u0414\u043e\u0458\u0440\u0430\u043d", "addr:postcode": "1487", "addr:street": "\u041c\u0430\u0440\u0448\u0430\u043b \u0422\u0438\u0442\u043e", "amenity": "restaurant", "name": "\u041d\u043e\u0442\u0430"}}], "\u041b\u043e\u043a\u0432\u0438\u0446\u0430": [{"type": "node", "id": 419115353, "lat": 41.541066, "lon": 21.2442677, "tags": {"amenity": "restaurant", "cuisine": "fish", "email": "pesnamotel@yahoo.com", "int_name": "Pe\u0161na", "name": "\u041f\u0435\u0448\u043d\u0430", "name:en": "Peshna", "phone:1": "+389 75 44 64 10", "phone:2": "+389 76 432 432", "website": "www.pesnamotel.com.mk"}}, {"type": "node", "id": 3832555934, "lat": 41.545315, "lon": 21.2494143, "tags": {"amenity": "restaurant", "name": "\u041c\u0435\u0430\u043d\u0430 \u0414\u0435\u0434\u043e \u0418\u043b\u0438\u0458\u0430", "name:en": "Dedo Ilija"}}], "\u041a\u043e\u0447\u0430\u043d\u0438": [{"type": "node", "id": 442545329, "lat": 41.9153534, "lon": 22.4125757, "tags": {"amenity": "restaurant", "int_name": "Prolet", "name": "\u041f\u0440\u043e\u043b\u0435\u0442", "name:en": "Prolet"}}, {"type": "node", "id": 444360934, "lat": 41.9596507, "lon": 22.4062744, "tags": {"amenity": "restaurant", "cuisine": "regional", "int_name": "Grad\u010de", "name": "\u0413\u0440\u0430\u0434\u0447\u0435"}}, {"type": "node", "id": 2316119134, "lat": 41.9176668, "lon": 22.4104224, "tags": {"amenity": "restaurant", "name": "\u041a\u0430\u043f\u0440\u0438"}}, {"type": "node", "id": 2320912360, "lat": 41.9172558, "lon": 22.4104385, "tags": {"amenity": "restaurant", "name": "Aquarium"}}, {"type": "node", "id": 2320912421, "lat": 41.918076, "lon": 22.4102588, "tags": {"amenity": "restaurant", "name": "Balkanlux"}}, {"type": "node", "id": 2320923929, "lat": 41.9187207, "lon": 22.4101783, "tags": {"amenity": "restaurant", "name": "Bakery Kamel"}}], "\u0411\u043b\u0430\u0442\u0435\u0446": [{"type": "node", "id": 444695367, "lat": 41.8339517, "lon": 22.6230389, "tags": {"amenity": "restaurant", "name": "Ribnik Blatec"}}], "\u0421\u0442\u0440\u0443\u043c\u0438\u0446\u0430": [{"type": "node", "id": 461655652, "lat": 41.4392415, "lon": 22.6502444, "tags": {"amenity": "restaurant", "name": "Luna 2"}}, {"type": "node", "id": 2406002719, "lat": 41.4378354, "lon": 22.6452777, "tags": {"addr:city": "\u0421\u0442\u0440\u0443\u043c\u0438\u0446\u0430", "addr:housename": "\u0412\u043a\u0443\u0441", "addr:postcode": "MK-2400", "addr:street": "\u0413\u043e\u0446\u0435 \u0414\u0435\u043b\u0447\u0435\u0432", "amenity": "restaurant", "cuisine": "regional", "name": "\u0412\u043a\u0443\u0441"}}, {"type": "node", "id": 2465901189, "lat": 41.4352537, "lon": 22.6328921, "tags": {"addr:street": "Neretva", "amenity": "restaurant", "cuisine": "regional", "name": "Loven Dom"}}, {"type": "node", "id": 4448736389, "lat": 41.4433529, "lon": 22.6433683, "tags": {"amenity": "restaurant", "name": "\u0427\u0430\u043c\u043e\u0432\u0441\u043a\u0438", "name:en": "Chamovski", "name:mk": "\u0427\u0430\u043c\u043e\u0432\u0441\u043a\u0438"}}, {"type": "node", "id": 5075885521, "lat": 41.4409617, "lon": 22.6388602, "tags": {"amenity": "restaurant", "name": "Salomon fud", "name:mk": "Salomon fud"}}], "\u0420\u043e\u0441\u043e\u043c\u0430\u043d": [{"type": "node", "id": 477689674, "lat": 41.5237914, "lon": 21.9522494, "tags": {"amenity": "restaurant", "cuisine": "regional", "name": "Kaj Zika"}}], "\u0422\u0440\u043f\u0435\u0458\u0446\u0430": [{"type": "node", "id": 528996470, "lat": 40.9615847, "lon": 20.7819982, "tags": {"amenity": "restaurant", "name": "\u0421\u0435\u043d \u0422\u0440\u043e\u043f\u0435"}}, {"type": "node", "id": 4376827005, "lat": 41.0035617, "lon": 20.804929, "tags": {"amenity": "restaurant", "name": "\u0411\u0430\u043d\u0435 2", "name:en": "Bane 2"}}, {"type": "node", "id": 5599976622, "lat": 40.9617356, "lon": 20.7824024, "tags": {"amenity": "restaurant", "name": "Mermaid Terrace", "name:mk": "\u041c\u0435\u0440\u043c\u0435\u0458\u0434 \u0442\u0435\u0440\u0430\u0441"}}, {"type": "node", "id": 5810248383, "lat": 40.9621226, "lon": 20.7833664, "tags": {"amenity": "restaurant", "name": "\u0421\u0435\u043d \u0422\u0440\u043e\u043f\u0435"}}], "\u0421\u0440\u0435\u0442\u0435\u043d\u043e\u0432\u043e": [{"type": "node", "id": 555008847, "lat": 41.180711, "lon": 22.7242971, "tags": {"amenity": "restaurant", "cuisine": "fish", "name": "\u041d\u043e\u0442\u0430"}}], "\u0411\u0438\u0442\u043e\u043b\u0430": [{"type": "node", "id": 837180282, "lat": 41.0364578, "lon": 21.3533345, "tags": {"amenity": "restaurant", "int_name": "Arena", "name": "\u0410\u0440\u0435\u043d\u0430", "name:en": "Arena"}}, {"type": "node", "id": 1660208191, "lat": 41.036449, "lon": 21.3528594, "tags": {"amenity": "restaurant", "name": "\u0410\u0440\u0430\u0436\u043e\u043a"}}, {"type": "node", "id": 1660208193, "lat": 41.036449, "lon": 21.3539109, "tags": {"amenity": "restaurant", "name": "\u0411\u0430\u043b\u0443\u043a\u0441"}}, {"type": "node", "id": 2316156248, "lat": 41.0295644, "lon": 21.3356564, "tags": {"amenity": "restaurant", "cuisine": "pizza", "name": "Pizza Metro"}}, {"type": "node", "id": 2316156279, "lat": 41.0256207, "lon": 21.3368286, "tags": {"amenity": "restaurant", "name": "\u041f\u0438\u0446\u0435\u0440\u0438\u0458\u0430 \u041b\u0435\u043e"}}, {"type": "node", "id": 4315772629, "lat": 41.0130595, "lon": 21.34668, "tags": {"amenity": "restaurant", "name": "Vavilon"}}, {"type": "node", "id": 5448461621, "lat": 41.0236829, "lon": 21.3412151, "tags": {"addr:housenumber": "20", "addr:postcode": "7000", "addr:street": "\u041f\u0430\u0440\u0442\u0438\u0437\u0430\u043d\u0441\u043a\u0430", "amenity": "restaurant", "name": "\u0421\u043a\u0430\u043d\u0434\u0430\u043b", "name:en": "Skandal"}}, {"type": "node", "id": 6370064210, "lat": 41.0309947, "lon": 21.331219, "tags": {"amenity": "restaurant", "name": "\u0413\u0430\u0440\u0434\u0435\u043d \u0418\u043c\u0438\u045f", "name:en": "Garden Image"}}, {"type": "node", "id": 6677312292, "lat": 41.0289785, "lon": 21.3357094, "tags": {"addr:housenumber": "61", "addr:street": "Shirok Sokak", "amenity": "restaurant", "description": "Healthy food & fresh drinks (vegetarian & vegan menu, juices & smoothies)", "diet:vegan": "yes", "diet:vegetarian": "yes", "name": "Center Lounge & Fresh Bar", "phone": "047 52 83 62"}}, {"type": "node", "id": 8909816031, "lat": 41.0266555, "lon": 21.3366265, "tags": {"amenity": "restaurant", "name": "\u0411\u0443\u0440\u0435", "name:en": "Bure"}}, {"type": "node", "id": 8909816034, "lat": 41.0273766, "lon": 21.3365076, "tags": {"amenity": "restaurant", "name": "\u0420\u0430\u0432\u0435\u043d\u0430", "name:en": "Ravena"}}, {"type": "node", "id": 8909816035, "lat": 41.0270204, "lon": 21.3371573, "tags": {"amenity": "restaurant", "name": "\u041a\u043e\u0440\u0437\u043e", "name:en": "Korzo"}}, {"type": "node", "id": 8910471474, "lat": 41.0282053, "lon": 21.3374821, "tags": {"amenity": "restaurant", "name": "\u0411\u0435\u043b\u0430 \u041a\u0443\u045c\u0430"}}, {"type": "node", "id": 8911858261, "lat": 41.0245246, "lon": 21.3157954, "tags": {"amenity": "restaurant", "name": "\u041a\u0430\u0447\u0443\u043d\u043a\u0430", "name:en": "Kachunka", "name:mk": "\u041a\u0430\u0447\u0443\u043d\u043a\u0430"}}, {"type": "node", "id": 8990283203, "lat": 41.0264068, "lon": 21.3355359, "tags": {"amenity": "restaurant", "name": "\u0413\u0430\u043b\u0430 \u0413\u0430\u0440\u0434\u0435\u043d"}}], "\u0422\u0435\u0442\u043e\u0432\u043e": [{"type": "node", "id": 1021423924, "lat": 42.0080851, "lon": 20.9731075, "tags": {"amenity": "restaurant", "name": "Maestro Cafe"}}, {"type": "node", "id": 2835853871, "lat": 41.986155, "lon": 20.958638, "tags": {"addr:city": "\u0422\u0435\u0442\u043e\u0432\u043e", "addr:street": "\u0418\u043b\u0438\u043d\u0434\u0435\u043d\u0441\u043a\u0430", "amenity": "restaurant", "cuisine": "regional", "name": "Emka", "smoking": "yes"}}, {"type": "node", "id": 3930911802, "lat": 42.0077518, "lon": 20.9750309, "tags": {"addr:city": "Tetovo", "addr:housenumber": "94", "addr:postcode": "1200", "addr:street": "\u041c\u0430\u0440\u0448\u0430\u043b \u0422\u0438\u0442\u043e", "amenity": "restaurant", "capacity": "150", "cuisine": "pizza", "delivery": "no", "name": "Restaurant Sirena", "opening_hours": "07:00- 24:00", "phone": "+389 44 335 701", "smoking": "isolated", "takeaway": "yes"}}, {"type": "node", "id": 4154573189, "lat": 41.9995695, "lon": 20.9614188, "tags": {"amenity": "restaurant", "cuisine": "burger;sandwich;breakfast;ice_cream;tea;cake;coffee_shop;pasta;pizza;diner", "internet_access": "wlan", "name": "Era", "name:sq": "Era", "opening_hours": "Mo-Su 09:00-00:00"}}, {"type": "node", "id": 4154574089, "lat": 41.9976539, "lon": 20.961125, "tags": {"amenity": "restaurant", "cuisine": "burger;sandwich;ice_cream;grill;cake;coffee_shop;pasta;greek;balkan;pancake;pizza;fish_and_chips;diner;italian_pizza;fish;hot_dog;breakfast;tea;italian", "internet_access": "wlan", "name": "Restaurant Boss", "name:mk": "\u0420\u0435\u0441\u0442\u043e\u0440\u0430\u043d\u0442 \u0411\u043e\u0441\u0441", "name:sq": "Restaurant Boss", "opening_hours": "24/7"}}, {"type": "node", "id": 4267161773, "lat": 42.0041795, "lon": 20.9894268, "tags": {"amenity": "restaurant", "name": "Restaurant Emporium", "opening_hours": "Mo-Th 08:00-24:00, Fr-Sa 08:00-01:00, Su 08:00-24:00", "phone": "+389 78 388 265"}}, {"type": "node", "id": 4267660935, "lat": 42.0042478, "lon": 20.989468, "tags": {"amenity": "restaurant", "cuisine": "steak_house", "name": "Fontana Grill", "opening_hours": "Mo-Su 08:00-24:00", "phone": "+389 70 664 471"}}, {"type": "node", "id": 4375878893, "lat": 42.0073877, "lon": 20.9746292, "tags": {"addr:postcode": "1200", "amenity": "restaurant", "internet_access": "wlan", "name": "11", "name:mk": "11"}}, {"type": "node", "id": 4430465598, "lat": 42.008963, "lon": 20.971466, "tags": {"addr:city": "Tetovo", "addr:housenumber": "Floor", "addr:postcode": "1220;1200", "addr:street": "Ilindenska", "amenity": "restaurant", "atm": "no", "brand": "KUBIKS", "description": "Kubiks - Creative Works is producing animated media (high quality animations, clips, short movies, commercials\n, designs, games, websites, etc).", "internet_access": "no", "name": "\u041a\u0423\u0411\u0418\u041a\u0421 - \u0421\u0442\u0443\u0434\u0438\u043e \u0437\u0430 \u0410\u043d\u0438\u043c\u0430\u0446\u0438\u0458\u0430", "name:en": "KUBIKS - Animation Studios", "name:sq": "KUBIKS - Studio Animacioni", "note": "KUBIKS - Creative Works Animation, Graphic Design, Corporate Identity, IT Services and distributor.", "opening_hours": "24/7", "shop": "electronics", "website": "http://www.kub-x.com/", "wheelchair": "limited"}}, {"type": "node", "id": 4753448922, "lat": 41.9912803, "lon": 20.9602367, "tags": {"amenity": "restaurant", "name": "Ultra", "name:en": "Ultra", "name:mk": "Ultra"}}, {"type": "node", "id": 4912937822, "lat": 42.009057, "lon": 20.9756816, "tags": {"amenity": "restaurant", "name": "\u0420\u0435\u0441\u0442\u043e\u0440\u0430\u043d \u0415\u0441\u043d\u0430\u0432", "name:mk": "\u0420\u0435\u0441\u0442\u043e\u0440\u0430\u043d \u0415\u0441\u043d\u0430\u0432"}}, {"type": "node", "id": 4912996422, "lat": 42.0089945, "lon": 20.9758291, "tags": {"amenity": "restaurant", "name": "\u0420\u0435\u0441\u0442\u043e\u0440\u0430\u043d \u0422\u0435\u0442\u043e\u0432\u0441\u043a\u0430 \u041a\u0443\u045c\u0430", "name:mk": "\u0420\u0435\u0441\u0442\u043e\u0440\u0430\u043d \u0422\u0435\u0442\u043e\u0432\u0441\u043a\u0430 \u041a\u0443\u045c\u0430"}}, {"type": "node", "id": 4912996423, "lat": 42.0095705, "lon": 20.9758432, "tags": {"amenity": "restaurant", "name": "\u041f\u0438\u0446\u0430-\u0420\u0435\u0441\u0442\u043e\u0440\u0430\u043d \u041f\u0443\u043d\u0442\u043e \u0412\u0435\u0440\u0434\u0435", "name:mk": "\u041f\u0438\u0446\u0430-\u0420\u0435\u0441\u0442\u043e\u0440\u0430\u043d \u041f\u0443\u043d\u0442\u043e \u0412\u0435\u0440\u0434\u0435"}}, {"type": "node", "id": 4915240923, "lat": 42.0069026, "lon": 20.9805382, "tags": {"amenity": "restaurant", "name": "\u0413\u0430\u0440\u0434\u0435\u043d \u0420\u0435\u0441\u0442\u043e\u0440\u0430\u043d\u0442", "name:en": "Garden Restaurant", "name:mk": "\u0413\u0430\u0440\u0434\u0435\u043d \u0420\u0435\u0441\u0442\u043e\u0440\u0430\u043d\u0442"}}, {"type": "node", "id": 5777115753, "lat": 42.0133094, "lon": 20.9660018, "tags": {"addr:housenumber": "108", "addr:postcode": "1220", "addr:street": "\u0413\u043e\u0446\u0435 \u0414\u0435\u043b\u0447\u0435\u0432", "amenity": "restaurant", "cuisine": "fish;regional;international;ice_cream;crepe;seafood;coffee_shop;steak_house;balkan;pancake;pizza;diner;chicken", "diet:vegetarian": "yes", "email": "bela_mia2004@yahoo.com", "internet_access": "wlan", "name": "\u0411\u0415\u041b\u0410\u041c\u0418\u0410", "name:en": "BELAMIA", "opening_hours": "Mo-Su 09:00-23:00", "operator": "nenad petrovic", "phone": "0038944331332", "website": "http://belamia.mk"}}, {"type": "node", "id": 7316834012, "lat": 42.0087985, "lon": 20.9705086, "tags": {"addr:city": "Tetovo", "addr:postcode": "1220;1200", "addr:street": "\u0418\u043b\u0438\u043d\u0434\u0435\u043d\u0441\u043a\u0430", "amenity": "restaurant", "name": "CITYGRILL Tetove", "opening_hours": "Mo-Su 08:00-23:00", "phone": "+38972695000"}}, {"type": "node", "id": 8375206948, "lat": 42.0241791, "lon": 20.9446443, "tags": {"addr:postcode": "1220", "addr:street": "Banjice", "amenity": "restaurant", "name": "Restaurant Anes Lumit"}}], "\u0413\u0440\u0447\u0435\u0446": [{"type": "node", "id": 1132688809, "lat": 41.9953819, "lon": 21.3274583, "tags": {"amenity": "restaurant", "cuisine": "international", "name": "River Side Garden", "opening_hours:covid19": "restricted", "phone": "+38970890606"}}], "\u0412\u043e\u043b\u043a\u043e\u0432\u043e": [{"type": "node", "id": 1475328750, "lat": 42.0464013, "lon": 21.3462963, "tags": {"amenity": "restaurant", "cuisine": "regional", "is_in": "Volkovo", "name": "Restoran Tomi"}}], "\u041d\u043e\u0432\u043e \u0421\u0435\u043b\u043e": [{"type": "node", "id": 1475388232, "lat": 42.0299906, "lon": 21.3508185, "tags": {"amenity": "restaurant", "cuisine": "regional", "name": "Meraklii"}}], "\u0411\u043e\u0433\u043e\u043c\u0438\u043b\u0430": [{"type": "node", "id": 1506640739, "lat": 41.591053, "lon": 21.4700306, "tags": {"amenity": "restaurant", "int_name": "Dzidan Most", "name": "\u0405\u0438\u0434\u0430\u043d \u041c\u043e\u0441\u0442", "name:en": "Dzidan Most"}}], "\u0412\u0435\u043b\u0435\u0441": [{"type": "node", "id": 1634933708, "lat": 41.7170862, "lon": 21.7753509, "tags": {"amenity": "restaurant", "name": "\u0421\u043d\u0443\u043f\u0438"}}, {"type": "node", "id": 1710571027, "lat": 41.7176653, "lon": 21.7777592, "tags": {"amenity": "restaurant", "name": "\u0421\u043d\u0443\u043f\u0438"}}, {"type": "node", "id": 1710571117, "lat": 41.7176332, "lon": 21.7775232, "tags": {"amenity": "restaurant", "name": "\u041e\u0444\u0438\u0446\u0438\u0440\u0441\u043a\u0438"}}, {"type": "node", "id": 1712601384, "lat": 41.7153245, "lon": 21.7842383, "tags": {"amenity": "restaurant", "name": "\u0421\u0438\u043d\u0430 \u0421\u0430\u043b\u0430"}}, {"type": "node", "id": 1712601392, "lat": 41.7154688, "lon": 21.7842139, "tags": {"amenity": "restaurant", "name": "\u0420\u043e\u0437\u0435 \u0421\u0430\u043b\u0430"}}, {"type": "node", "id": 6368357685, "lat": 41.7177173, "lon": 21.7788314, "tags": {"addr:housenumber": "16", "addr:postcode": "1400", "addr:street": "\u0411\u043b\u0430\u0433\u043e\u0458 \u0403\u043e\u0440\u0435\u0432", "amenity": "restaurant", "internet_access": "wlan", "name": "\u0413\u043e\u0441\u0442\u0438\u043b\u043d\u0438\u0446\u0430 \u0421\u043e\u043a\u0430\u0447\u0435", "name:en": "Gostilnica Sokace", "opening_hours": "Mo-Su 08:00-00:00", "phone": "+38978349043", "website": "https://m.facebook.com/profile.php?id=572126203244707&ref=content_filter"}}], "\u041c\u0440\u0437\u0435\u043d\u0446\u0438": [{"type": "node", "id": 1674866746, "lat": 41.1651121, "lon": 22.5045562, "tags": {"amenity": "restaurant", "int_name": "Javor D\u017eoko", "name": "\u0408\u0430\u0432\u043e\u0440 \u040f\u043e\u043a\u043e", "name:en": "Javor Dzhoko"}}, {"type": "node", "id": 2411306190, "lat": 41.1622759, "lon": 22.4963093, "tags": {"amenity": "restaurant", "int_name": "Javor Agapi", "name": "\u0408\u0430\u0432\u043e\u0440 \u0410\u0433\u0430\u043f\u0438", "name:en": "Javor Agapi"}}], "\u041a\u0443\u043c\u0430\u043d\u043e\u0432\u043e": [{"type": "node", "id": 1768193993, "lat": 42.1365224, "lon": 21.7204006, "tags": {"amenity": "restaurant", "int_name": "Baba Cana", "name": "\u0411\u0430\u0431\u0430 \u0426\u0430\u043d\u0430"}}, {"type": "node", "id": 1776012307, "lat": 42.1235585, "lon": 21.7318423, "tags": {"amenity": "restaurant", "int_name": "Korner", "name": "\u041a\u043e\u0440\u043d\u0435\u0440"}}, {"type": "node", "id": 1794219941, "lat": 42.1317263, "lon": 21.7181577, "tags": {"amenity": "restaurant", "int_name": "Rim-Pariz", "name": "\u0420\u0438\u043c-\u041f\u0430\u0440\u0438\u0437"}}, {"type": "node", "id": 3647039848, "lat": 42.1208566, "lon": 21.733628, "tags": {"amenity": "restaurant", "name": "Exclusive"}}, {"type": "node", "id": 3647048030, "lat": 42.1214792, "lon": 21.7448727, "tags": {"amenity": "restaurant", "int_name": "Terazza", "name": "\u0422\u0435\u0440\u0430\u0446\u0430"}}, {"type": "node", "id": 4270352289, "lat": 42.1320465, "lon": 21.7206493, "tags": {"addr:housenumber": "1", "addr:postcode": "1300", "addr:street": "\u0421\u0432. \u041a\u0438\u0440\u0438\u043b \u0438 \u041c\u0435\u0442\u043e\u0434\u0438\u0458", "amenity": "restaurant", "cuisine": "burger;sandwich;regional;international;grill;coffee_shop;pasta;balkan;pancake;pizza;fish_and_chips;diner;chicken;italian_pizza;fish;seafood;mediterranean;italian;fine_dining", "internet_access": "wlan", "name": "Restoran Prado", "opening_hours": "Mo-Th 08:00-24:00; Fr-Sa 08:00-01:00; Su 10:00-24:00", "phone": "+38931430100", "website": "https://m.facebook.com/prado.kumanovo/"}}, {"type": "node", "id": 5672618724, "lat": 42.1333614, "lon": 21.7282115, "tags": {"amenity": "restaurant", "name": "\u041f\u043e\u043c\u043e\u0434\u043e\u0440\u043e"}}, {"type": "node", "id": 5772884450, "lat": 42.1333475, "lon": 21.7131719, "tags": {"amenity": "restaurant", "internet_access:fee": "no", "name": "Ambrella", "outdoor_seating": "yes", "toilets": "yes"}}, {"type": "node", "id": 5999496785, "lat": 42.1288686, "lon": 21.6985476, "tags": {"amenity": "restaurant", "name": "Restaurant Arcus"}}, {"type": "node", "id": 6657846786, "lat": 42.1344812, "lon": 21.7180518, "tags": {"amenity": "restaurant", "name": "Bash Pelivan"}}, {"type": "node", "id": 6812666802, "lat": 42.1328848, "lon": 21.7007524, "tags": {"amenity": "restaurant", "name": "Milano"}}, {"type": "node", "id": 9062216725, "lat": 42.1238452, "lon": 21.7219653, "tags": {"amenity": "restaurant", "name": "\u0415\u043a\u0441\u043b\u0443\u0437\u0438\u0432 \u0411\u0430\u0441\u0442\u0438\u043e\u043d", "name:en": "Exclusive Bastion", "phone": "+38970334174"}}], "\u0411\u043e\u0440\u0438\u0441\u043e\u0432\u043e": [{"type": "node", "id": 1790311348, "lat": 41.3811426, "lon": 22.819584, "tags": {"amenity": "restaurant", "cuisine": "regional", "name": "\u0420\u0435\u0441\u0442\u043e\u0440\u0430\u043d \u0421\u041e\u041d\u0426\u0415 - Restaurant SONCE"}}], "\u041d\u043e\u0432 \u0414\u043e\u0458\u0440\u0430\u043d": [{"type": "node", "id": 1791598024, "lat": 41.2271802, "lon": 22.6991213, "tags": {"amenity": "restaurant", "internet_access": "wlan", "name": "\u0425\u043e\u0442\u0435\u043b \u0418\u0448\u0442\u0430\u0442\u043e\u0432", "name:en": "Hotel Istatov"}}], "\u0420\u0430\u0434\u0438\u0448\u0430\u043d\u0438": [{"type": "node", "id": 1850489869, "lat": 42.0578588, "lon": 21.4514149, "tags": {"amenity": "restaurant", "name": "\u0420\u0435\u0441\u0442\u043e\u0440\u0430\u043d \u201e\u0410\u043b\u0435\u043a\u0441\u0430\u043d\u0434\u0430\u0440\u201c"}}, {"type": "node", "id": 1850521527, "lat": 42.0537503, "lon": 21.4523161, "tags": {"amenity": "restaurant", "name": "\u0414\u0430\u0440\u0432\u0438\u043a"}}], "\u0408\u0430\u0441\u0442\u0440\u0435\u0431\u043d\u0438\u043a": [{"type": "node", "id": 1874196851, "lat": 42.0371055, "lon": 22.3532041, "tags": {"amenity": "restaurant", "cuisine": "regional", "name": "\u041e\u0441\u043e\u0433\u043e\u0432\u0441\u043a\u0438 \u0411\u0438\u0441\u0435\u0440"}}], "\u041a\u043e\u043d\u0441\u043a\u043e": [{"type": "node", "id": 1911952177, "lat": 41.1775397, "lon": 22.1994416, "tags": {"amenity": "restaurant", "cuisine": "regional", "int_name": "\u041c\u043e\u043c\u0438\u043d\u0430 \u010c\u0443\u043a\u0430", "name": "\u041c\u043e\u043c\u0438\u043d\u0430 \u0427\u0443\u043a\u0430"}}, {"type": "node", "id": 1911952203, "lat": 41.1690988, "lon": 22.2108324, "tags": {"amenity": "restaurant", "cuisine": "regional", "int_name": "Markovo Ba\u010dilo", "name": "\u041c\u0430\u0440\u043a\u043e\u0432\u043e \u0411\u0430\u0447\u0438\u043b\u043e"}}], "\u0413\u0438\u043d\u043e\u0432\u0446\u0438": [{"type": "node", "id": 1920228869, "lat": 42.1826707, "lon": 22.1639057, "tags": {"alt_name": "\u0411\u0435\u043d\u0442\u043e\u043c\u0430\u043a", "amenity": "restaurant", "cuisine": "fish", "int_name": "\u041f\u0430\u0440\u043a", "name": "Park"}}], "\u0420\u0430\u043d\u043a\u043e\u0432\u0446\u0435": [{"type": "node", "id": 1920229092, "lat": 42.1712493, "lon": 22.0980414, "tags": {"amenity": "restaurant", "cuisine": "fish", "int_name": "Gogo Mond", "name": "\u0413\u043e\u0433\u043e \u041c\u043e\u043d\u0434"}}], "\u0428\u0442\u0438\u043f": [{"type": "node", "id": 1927095420, "lat": 41.7376171, "lon": 22.1937687, "tags": {"amenity": "restaurant", "name": "Piaza Liberta"}}, {"type": "node", "id": 4247199848, "lat": 41.7375454, "lon": 22.1911884, "tags": {"amenity": "restaurant", "cuisine": "sandwich;balkan;breakfast;pizza;kebab;local;pasta;coffee_shop;ice_cream", "internet_access": "wlan", "name": "Classic Restaurant", "opening_hours": "Mo-Su 07:00-00:00"}}, {"type": "node", "id": 4356193798, "lat": 41.7388546, "lon": 22.1966748, "tags": {"amenity": "restaurant", "name": "\u041a\u0435\u0431\u0430\u043f\u0447\u0438\u043b\u043d\u0438\u0446\u0430 \u0422\u0430\u0441\u0435", "name:mk": "\u041a\u0435\u0431\u0430\u043f\u0447\u0438\u043b\u043d\u0438\u0446\u0430 \u0422\u0430\u0441\u0435"}}, {"type": "node", "id": 4360781689, "lat": 41.7382087, "lon": 22.1922397, "tags": {"amenity": "restaurant", "name": "\u0420\u043e\u043c\u0430"}}, {"type": "node", "id": 5542393287, "lat": 41.7471233, "lon": 22.2011852, "tags": {"amenity": "restaurant", "name": "\u041a\u0430\u0444\u0435 \u041a\u0430\u043d\u0430\u043b 77"}}, {"type": "node", "id": 6346079372, "lat": 41.7368287, "lon": 22.1907365, "tags": {"amenity": "restaurant", "name": "\u0420\u0435\u0441\u0442\u043e\u0440\u0430\u043d \u0421\u0430\u043d-\u0420\u0435\u043c\u043e"}}, {"type": "node", "id": 6347445700, "lat": 41.7383603, "lon": 22.1921774, "tags": {"amenity": "restaurant", "name": "\u0423 \u0421\u043e\u043a\u0430\u043a\u043e"}}, {"type": "node", "id": 6347445707, "lat": 41.7390109, "lon": 22.1928555, "tags": {"amenity": "restaurant", "name": "\u0412\u0435\u0440\u043e\u043d\u0430"}}, {"type": "node", "id": 6347491473, "lat": 41.7371339, "lon": 22.1901494, "tags": {"amenity": "restaurant", "cuisine": "pizza;regional;burger;coffee_shop;sandwich;kebab;chicken;ice_cream", "facebook": "https://www.facebook.com/uniklub", "name": "\u0423\u043d\u0438\u0432\u0435\u0440\u0437\u0438\u0442\u0435\u0442\u0441\u043a\u0438 \u0420\u0435\u0441\u0442\u043e\u0440\u0430\u043d\u0442", "website": "https://www.facebook.com/uniklub"}}, {"type": "node", "id": 7373084433, "lat": 41.7482188, "lon": 22.1979387, "tags": {"amenity": "restaurant", "name": "Tornado Lounge Bar"}}], "\u041c\u0430\u043d\u0430\u0441\u0442\u0438\u0440\u0435\u0446": [{"type": "node", "id": 1969643792, "lat": 41.6150472, "lon": 21.2205193, "tags": {"amenity": "restaurant", "cuisine": "fish", "int_name": "Izvor", "name": "\u0418\u0437\u0432\u043e\u0440", "name:en": "Izvor", "phone:1": "+389 45 275 200", "phone:2": "+389 78 281 261", "phone:3": "+388 70 950 009"}}], "\u0421\u0440\u0435\u0442\u043a\u043e\u0432\u043e": [{"type": "node", "id": 2248576375, "lat": 41.6714632, "lon": 20.8544996, "tags": {"amenity": "restaurant", "int_name": "Stra\u017ea", "name": "\u0421\u0442\u0440\u0430\u0436\u0430", "name:en": "Strazha"}}], "\u041f\u0440\u0438\u043b\u0435\u043f": [{"type": "node", "id": 2292333295, "lat": 41.3459768, "lon": 21.5546262, "tags": {"amenity": "restaurant", "name": "\u041a\u0430\u0441\u043f\u0435\u0440"}}, {"type": "node", "id": 2292437665, "lat": 41.3453989, "lon": 21.5543097, "tags": {"amenity": "restaurant", "name": "\u041f\u0438\u043d\u043a \u041f\u0430\u043d\u0442\u0435\u0440", "name:en": "Pink Panter", "wheelchair": "limited"}}, {"type": "node", "id": 2292486455, "lat": 41.3460137, "lon": 21.5543797, "tags": {"amenity": "restaurant", "int_name": "Paradizo", "name": "\u041f\u0430\u0440\u0430\u0434\u0438\u0437\u043e", "name:en": "Paradizo", "wheelchair": "yes"}}, {"type": "node", "id": 4380494182, "lat": 41.3431784, "lon": 21.552257, "tags": {"amenity": "restaurant", "name": "\u0421\u0442\u043e\u0458\u0447\u0435-\u041c\u0435\u0442\u0440\u043e\u043f\u043e\u043b"}}, {"type": "node", "id": 5841843562, "lat": 41.3459748, "lon": 21.5554324, "tags": {"amenity": "restaurant", "name": "Magic Food"}}, {"type": "node", "id": 8043810920, "lat": 41.3503836, "lon": 21.5382215, "tags": {"addr:city": "\u041f\u0440\u0438\u043b\u0435\u043f", "addr:housenumber": "\u0411\u0411 (BB)", "addr:postcode": "7503", "addr:street": "\u041f\u0435\u0440\u0435 \u0422\u043e\u0448\u0435\u0432", "amenity": "restaurant", "cuisine": "macedonian", "name": "\u0414\u0435\u043b\u0444\u0438\u043d\u0430", "name:en": "Delfina", "phone": "+38948410300", "website": "https://www.facebook.com/%D0%A0%D0%B5%D1%81%D1%82%D0%BE%D1%80%D0%B0%D0%BD-%D0%94%D0%B5%D0%BB%D1%84%D0%B8%D0%BD%D0%B0-1402052980039316/"}}, {"type": "node", "id": 8043957655, "lat": 41.3332719, "lon": 21.5555548, "tags": {"addr:city": "\u041f\u0440\u0438\u043b\u0435\u043f", "addr:housenumber": "2/8", "addr:postcode": "7500", "addr:street": "\u0426\u0430\u0440 \u0421\u0430\u043c\u043e\u0438\u043b", "amenity": "restaurant", "cuisine": "macedonian", "name": "\u041a\u0435\u0440\u043c\u0435\u0441", "name:en": "Kermes", "phone": "+38948410192"}}, {"type": "node", "id": 8043957656, "lat": 41.3466818, "lon": 21.5551002, "tags": {"addr:city": "\u041f\u0440\u0438\u043b\u0435\u043f", "addr:housenumber": "1", "addr:postcode": "7500", "addr:street": "\u0413\u043e\u0446\u0435 \u0414\u0435\u043b\u0447\u0435\u0432", "amenity": "restaurant", "cuisine": "pizza;macedonian", "name": "\u041b\u0430 \u0421\u0442\u0440\u0430\u0434\u0430 (\u041a\u0430\u043b\u0438\u043f\u0441\u043e)", "name:en": "Calypso's La Strada", "phone": "+38975410645;+38948414212", "website": "https://www.facebook.com/lastradabycalypso/"}}, {"type": "node", "id": 8043957657, "lat": 41.3465843, "lon": 21.5539582, "tags": {"addr:city": "\u041f\u0440\u0438\u043b\u0435\u043f", "addr:housenumber": "30", "addr:postcode": "7500", "addr:street": "\u0413\u043e\u0446\u0435 \u0414\u0435\u043b\u0447\u0435\u0432", "amenity": "restaurant", "cuisine": "macedonian;pizza", "name": "\u041b\u0435\u043e\u043d\u0435", "name:en": "Leone", "phone": "+38948418282", "website": "https://www.facebook.com/LeonePrilep/"}}], "\u0428\u0438\u043f\u043e\u043a\u043d\u043e": [{"type": "node", "id": 2316032925, "lat": 41.076418, "lon": 20.8016318, "tags": {"amenity": "restaurant", "name": "\u041c\u0430\u043a\u0435\u0434\u043e\u043d\u0441\u043a\u0430 \u043a\u0443\u045c\u0430"}}], "\u0428\u0438\u0448\u0435\u0432\u043e": [{"type": "node", "id": 2333163643, "lat": 41.9502955, "lon": 21.2993843, "tags": {"amenity": "restaurant", "cuisine": "regional", "name": "\u041a\u0430\u045a\u043e\u043d \u041c\u0430\u0442\u043a\u0430"}}], "\u0414\u043e\u043b\u043d\u0430 \u041c\u0430\u0442\u043a\u0430": [{"type": "node", "id": 2334423406, "lat": 41.9610975, "lon": 21.2961533, "tags": {"amenity": "restaurant", "cuisine": "regional", "name": "\u041c\u0430\u043d\u0430\u0441\u0442\u0438\u0440\u0441\u043a\u0430 \u043f\u0435\u0448\u0442\u0435\u0440\u0430"}}, {"type": "node", "id": 5830234866, "lat": 41.96002, "lon": 21.2952137, "tags": {"amenity": "restaurant", "description": "The Monastery Cave and Macedonian Cave Restaurants are within 200 meters of each other. Both serve traditional Macedonian dishes", "name": "Fish Grill (Macedonian Cave Restaurant)", "opening_hours": "Mo-Su 09:00-21:00", "outdoor_seating": "yes"}}], "\u041a\u0438\u0447\u0435\u0432\u043e": [{"type": "node", "id": 2357239839, "lat": 41.5118075, "lon": 20.9594822, "tags": {"amenity": "restaurant", "cuisine": "italian;pizza;regional", "name": "Gallery"}}, {"type": "node", "id": 2387561655, "lat": 41.5115542, "lon": 20.9508952, "tags": {"amenity": "restaurant", "cuisine": "regional", "name": "Atva"}}, {"type": "node", "id": 7714773225, "lat": 41.5120219, "lon": 20.9632525, "tags": {"amenity": "restaurant", "name": "Pizzeria Yahoo"}}, {"type": "node", "id": 7714773227, "lat": 41.5110368, "lon": 20.9575863, "tags": {"amenity": "restaurant", "name": "Lounge Bar Bacardi"}}, {"type": "node", "id": 7714773228, "lat": 41.5106546, "lon": 20.9586947, "tags": {"amenity": "restaurant", "name": "Lounge Bar New Age"}}], "\u0413\u0435\u0432\u0433\u0435\u043b\u0438\u0458\u0430": [{"type": "node", "id": 2360748743, "lat": 41.146047, "lon": 22.5011779, "tags": {"amenity": "restaurant", "name": "\u0422\u0414\u0426-3"}}, {"type": "node", "id": 4718381271, "lat": 41.1373679, "lon": 22.4988477, "tags": {"addr:city": "\u0413\u0435\u0432\u0433\u0435\u043b\u0438\u0458\u0430", "addr:housenumber": "193", "addr:street": "\u041c\u0430\u0440\u0448\u0430\u043b \u0422\u0438\u0442\u043e", "amenity": "restaurant", "cuisine": "regional", "name": "Restoran Sarisa", "phone": "+389 78717607"}}, {"type": "node", "id": 6337592985, "lat": 41.1414088, "lon": 22.5034378, "tags": {"amenity": "restaurant", "internet_access": "wlan", "name": "\u0418\u0434\u0438\u043b\u0430", "name:en": "Idila"}}], "\u041e\u0445\u0440\u0438\u0434": [{"type": "node", "id": 2377937978, "lat": 41.1084477, "lon": 20.8123651, "tags": {"amenity": "restaurant", "name": "Restoran Gros"}}, {"type": "node", "id": 2377938382, "lat": 41.1028959, "lon": 20.8148703, "tags": {"amenity": "restaurant", "name": "\u0420\u0435\u0441\u0442\u043e\u0440\u0430\u043d \u0411\u0438\u043b\u0458\u0430\u043d\u0438\u043d\u0438 \u0418\u0437\u0432\u043e\u0440\u0438", "name:en": "Biljanini Izvori Restaurant"}}, {"type": "node", "id": 2759066732, "lat": 41.1123103, "lon": 20.8011769, "tags": {"amenity": "restaurant", "cuisine": "regional", "name": "\u0411\u0435\u043b\u0432\u0435\u0434\u0435\u0440\u0435", "name:en": "Belvedere", "smoking": "outside"}}, {"type": "node", "id": 3005348016, "lat": 41.116341, "lon": 20.8002909, "tags": {"amenity": "restaurant", "name": "Meydan"}}, {"type": "node", "id": 3100113750, "lat": 41.1140172, "lon": 20.8026136, "tags": {"addr:city": "\u041e\u0445\u0440\u0438\u0434", "addr:housenumber": "20a", "addr:postcode": "6000", "addr:street": "\u0414\u0438\u043c\u0438\u0442\u0430\u0440 \u0412\u043b\u0430\u0445\u043e\u0432", "amenity": "restaurant", "cuisine": "regional", "name": "\u0424op\u0442\u0443\u043da", "name:en": "Fortuna", "opening_hours": "Mo-Su 07:00-24:00", "smoking": "outside"}}, {"type": "node", "id": 3428427693, "lat": 41.11542, "lon": 20.800047, "tags": {"amenity": "restaurant", "cuisine": "italian", "internet_access": "wlan", "name": "Pizzeria Americano", "outdoor_seating": "yes", "smoking": "outside"}}, {"type": "node", "id": 3826400404, "lat": 41.1119481, "lon": 20.801555, "tags": {"amenity": "restaurant", "name": "\u0420\u0438\u0432\u0438\u0435\u0440\u0430", "name:en": "Riviera"}}, {"type": "node", "id": 3826400416, "lat": 41.1104511, "lon": 20.8039749, "tags": {"amenity": "restaurant", "name": "\u041b\u0430 \u0411\u0435\u043b\u0430", "name:en": "La Bella"}}, {"type": "node", "id": 3826400434, "lat": 41.109536, "lon": 20.8052329, "tags": {"amenity": "restaurant", "name": "Royal View"}}, {"type": "node", "id": 4253086993, "lat": 41.1166205, "lon": 20.8011081, "tags": {"addr:housenumber": "8", "addr:postcode": "6000", "addr:street": "7 \u041d\u043e\u0435\u043c\u0432\u0440\u0438", "amenity": "restaurant", "diet:vegetarian": "yes", "name": "Dr. Falafel", "opening_hours": "Mo-Sa 09:30-22:30, Su 16:00-23:00", "phone": "+389 77 897 167"}}, {"type": "node", "id": 4283863605, "lat": 41.1124024, "lon": 20.7972577, "tags": {"amenity": "restaurant", "name": "\u0420\u0435\u0441\u0442\u043e\u0440\u0430\u043d \u0410\u043d\u0442\u0438\u043a\u043e"}}, {"type": "node", "id": 4429141992, "lat": 41.1168867, "lon": 20.7986796, "tags": {"amenity": "restaurant", "name": "Brioni 2008", "name:en": "Brioni 2008", "name:mk": "Brioni 2008"}}, {"type": "node", "id": 4429142391, "lat": 41.1169309, "lon": 20.7985841, "tags": {"amenity": "restaurant", "name": "Exclusive Art Cuisine", "name:en": "Exklusive Art Cuisine", "name:mk": "Exklusive Art Cuisine"}}, {"type": "node", "id": 4879772021, "lat": 41.1148473, "lon": 20.7934666, "tags": {"amenity": "restaurant", "name": "\u0413\u043b\u0430\u0434\u0438\u0430\u0442\u043e\u0440", "name:en": "Gladiator"}}, {"type": "node", "id": 4884870823, "lat": 41.1109837, "lon": 20.790543, "tags": {"amenity": "restaurant", "name": "\u041a\u0430\u0458 \u041a\u0430\u043d\u0435\u0432\u0447\u0435", "name:en": "Kaj Kanevche"}}, {"type": "node", "id": 4986923021, "lat": 41.112178, "lon": 20.7982792, "tags": {"amenity": "restaurant", "name": "\u041f\u043e\u0440\u0442\u0430", "name:en": "Porta", "name:mk": "\u041f\u043e\u0440\u0442\u0430"}}, {"type": "node", "id": 4993144523, "lat": 41.1118507, "lon": 20.7969483, "tags": {"amenity": "restaurant", "int_name": "Dalga", "name": "\u0414\u0430\u043b\u0433\u0430"}}, {"type": "node", "id": 5075880321, "lat": 41.0902867, "lon": 20.799108, "tags": {"addr:housenumber": "10A", "addr:street": "Naum Ohridski", "amenity": "restaurant", "email": "beachgiovani@gmail.com", "internet_access": "wlan", "name": "\u0411\u0418\u0427 \u0415\u041d\u0414 \u041b\u041e\u0423\u041d\u040f \u040f\u041e\u0412\u0410\u041d\u0418", "name:en": "Giovani Beach Lounge Bar", "name:mk": "\u0411\u0418\u0427 \u0415\u041d\u0414 \u041b\u041e\u0423\u041d\u040f \u040f\u041e\u0412\u0410\u041d\u0418", "opening_hours": "Mo-Sa 08:00-01:00; Su 09:00-00:00", "phone": "070230030"}}, {"type": "node", "id": 5448461921, "lat": 41.1122361, "lon": 20.7981623, "tags": {"addr:postcode": "6000", "addr:street": "\u0426\u0430\u0440 \u0421\u0430\u043c\u043e\u0438\u043b", "amenity": "restaurant", "cuisine": "italian_pizza", "email": "contact@pizzanemo.com", "internet_access": "wlan", "name": "\u041f\u0438\u0446\u0430 \u0410\u043b\u0435\u043a\u0441\u0430\u043d\u0434\u0440\u0438\u0430", "name:en": "Pizza Aleksandrija", "opening_hours": "Su-Th 09:00-00:00; Fr-Sa 09:00-01:00", "phone": "+389 46 253 355", "website": "http://www.pizzanemo.com"}}, {"type": "node", "id": 5602643621, "lat": 41.1121475, "lon": 20.7980562, "tags": {"amenity": "restaurant", "name": "Pizza Aleksandrija"}}, {"type": "node", "id": 5890717249, "lat": 41.1069789, "lon": 20.807528, "tags": {"amenity": "restaurant", "cuisine": "italian", "name": "Ristorante Stazione"}}, {"type": "node", "id": 5897434185, "lat": 41.1259308, "lon": 20.8157042, "tags": {"amenity": "restaurant", "name": "\u0420\u0435\u0441\u0442\u043e\u0440\u0430\u043d \u041f\u0430\u043d\u043e\u0440\u0430\u043c\u0430", "name:en": "Restoran Panorama", "opening_hours": "Mo-Su 07:00-23:55"}}, {"type": "node", "id": 5942100285, "lat": 41.1124235, "lon": 20.798032, "tags": {"amenity": "restaurant", "internet_access": "wlan", "name": "Kaj Ksantani Restaurant"}}, {"type": "node", "id": 6393028782, "lat": 41.1156043, "lon": 20.8012066, "tags": {"amenity": "restaurant", "cuisine": "regional", "diet:vegetarian": "yes", "name": "Macedonska Sofra"}}, {"type": "node", "id": 6393029979, "lat": 41.1133047, "lon": 20.799568, "tags": {"amenity": "restaurant", "name": "Letnica Kitchen & Bar"}}, {"type": "node", "id": 6553038892, "lat": 41.0911484, "lon": 20.800019, "tags": {"amenity": "restaurant", "cuisine": "regional", "name": "Divono"}}, {"type": "node", "id": 6556622586, "lat": 41.1066934, "lon": 20.8098566, "tags": {"addr:postcode": "6000", "addr:street": "\u041f\u0430\u0440\u0442\u0438\u0437\u0430\u043d\u0441\u043a\u0430", "amenity": "restaurant", "cuisine": "barbecue;mediterranean", "internet_access": "wlan", "name": "\u0420\u0435\u0441\u0442\u043e\u0440\u0430\u043d \u041e\u0440\u0444\u0435\u0458", "name:en": "Resraurant Orfej", "opening_hours": "Mo-Su 08:00-23:00", "phone": "075463446"}}, {"type": "node", "id": 6831632793, "lat": 41.1145687, "lon": 20.8003256, "tags": {"amenity": "restaurant", "name": "Alpi"}}, {"type": "node", "id": 6831648796, "lat": 41.111976, "lon": 20.8078783, "tags": {"amenity": "restaurant", "name": "Leopard"}}, {"type": "node", "id": 6831648800, "lat": 41.1103498, "lon": 20.8056915, "tags": {"amenity": "restaurant", "name": "Amfora", "name:en": "FONTANA"}}, {"type": "node", "id": 6831648890, "lat": 41.1122508, "lon": 20.8070573, "tags": {"amenity": "restaurant", "name": "Centro"}}, {"type": "node", "id": 6831648891, "lat": 41.1139038, "lon": 20.8107333, "tags": {"amenity": "restaurant", "name": "Pizzeria"}}, {"type": "node", "id": 6833100785, "lat": 41.1117071, "lon": 20.8049184, "tags": {"amenity": "restaurant", "name": "Europa"}}, {"type": "node", "id": 6834463391, "lat": 41.1069136, "lon": 20.80978, "tags": {"amenity": "restaurant", "name": "Orfej"}}, {"type": "node", "id": 6837039887, "lat": 41.1079577, "lon": 20.8066516, "tags": {"amenity": "restaurant", "name": "Madera"}}, {"type": "node", "id": 9040234627, "lat": 41.1130145, "lon": 20.8048774, "tags": {"addr:city": "Ohrid", "addr:housenumber": "44", "addr:street": "Dimitar Vlahov", "amenity": "restaurant", "cuisine": "sushi", "diet:pescetarian": "yes", "diet:vegetarian": "yes", "internet_access": "wlan", "internet_access:fee": "customers", "level": "0", "microbrewery": "no", "name": "oTTo", "opening_hours": "11:00", "outdoor_seating": "yes", "phone": "+38976203108", "takeaway": "yes", "website": "https://www.facebook.com/otto.good.mood.food", "wheelchair": "yes"}}, {"type": "node", "id": 9161033019, "lat": 41.1166832, "lon": 20.8013591, "tags": {"amenity": "restaurant", "name": "Corner"}}, {"type": "node", "id": 9161046817, "lat": 41.1182878, "lon": 20.8000296, "tags": {"amenity": "restaurant", "name": "Kaj Tzitzo"}}, {"type": "node", "id": 9200216723, "lat": 41.1108108, "lon": 20.791588, "tags": {"amenity": "restaurant", "name": "Potpes"}}], "\u041c\u043b\u0430\u0434\u043e \u041d\u0430\u0433\u043e\u0440\u0438\u0447\u0430\u043d\u0435": [{"type": "node", "id": 2477123089, "lat": 42.1574944, "lon": 21.862568, "tags": {"amenity": "restaurant", "cuisine": "regional", "int_name": "Etno Selo", "name": "\u0415\u0442\u043d\u043e \u0421\u0435\u043b\u043e", "name:en": "Etno Village", "source": "Survey"}}], "\u041a\u043b\u0435\u0447\u0435\u0432\u0446\u0435": [{"type": "node", "id": 2477129912, "lat": 42.1324603, "lon": 21.8645555, "tags": {"amenity": "restaurant", "cuisine": "fish", "name": "Fratelis"}}], "\u041a\u043e\u043d\u043e\u043f\u043d\u0438\u0446\u0430": [{"type": "node", "id": 2574272022, "lat": 42.1902652, "lon": 22.3059103, "tags": {"addr:city": "\u041a\u0440\u0438\u0432\u0430 \u041f\u0430\u043b\u0430\u043d\u043a\u0430", "addr:housename": "\u0441.\u043a\u043e\u043d\u043e\u043f\u043d\u0438\u0446\u0430", "addr:street": "Konopnica", "amenity": "restaurant", "capacity": "150", "cuisine": "regional", "name": "\u0411\u043e\u0440\u0447\u0435"}}], "\u041a\u043e\u045a\u0441\u043a\u043e": [{"type": "node", "id": 2984088703, "lat": 41.0678423, "lon": 20.8016787, "tags": {"amenity": "restaurant", "internet_access": "wlan", "internet_access:fee": "no", "name": "Prestol", "opening_hours": "07:00-21:00", "phone": "+389 46277858", "source": "survey", "stars": "3", "tourism": "hotel", "website": "http://www.hotelprestol.com"}}, {"type": "node", "id": 2992064333, "lat": 41.0666434, "lon": 20.8009009, "tags": {"amenity": "restaurant", "email": "reservation@hotelgranit.com.mk", "fax": "+389 46207141", "internet_access": "wlan", "internet_access:fee": "no", "name": "Granit", "phone": "+389 46207100", "stars": "4", "tourism": "hotel", "website": "http://www.hotelgranit.com.mk"}}, {"type": "node", "id": 5853269557, "lat": 41.0544299, "lon": 20.8125826, "tags": {"amenity": "restaurant", "name": "Terasa Utarna"}}], "\u041a\u0443\u0447\u043a\u043e\u0432\u043e": [{"type": "node", "id": 3020876346, "lat": 42.0597023, "lon": 21.3236858, "tags": {"amenity": "restaurant", "int_name": "Staro Bure", "name": "\u0421\u0442\u0430\u0440\u043e \u0411\u0443\u0440\u0435", "name:en": "Staro Bure"}}], "\u041b\u0430\u0433\u0430\u0434\u0438\u043d": [{"type": "node", "id": 3085981445, "lat": 41.0459402, "lon": 20.8031982, "tags": {"amenity": "restaurant", "cuisine": "Sp\u00e9cialit\u00e9s_Locales", "name": "Dva Bisera"}}], "\u0414\u0430\u043c\u0458\u0430\u043d": [{"type": "node", "id": 3664638120, "lat": 41.6245987, "lon": 22.3171977, "tags": {"amenity": "restaurant", "name": "\u041f\u0438\u043b\u0430\u0432 \u0422\u0435\u043f\u0435", "name:en": "Pilav Tepe"}}], "\u041b\u0438\u0441\u0435\u0446": [{"type": "node", "id": 3671888433, "lat": 42.0113442, "lon": 20.8820185, "tags": {"amenity": "restaurant", "name": "\u041a\u043e\u043d\u0430\u043a"}}, {"type": "node", "id": 3921774262, "lat": 42.0138371, "lon": 20.8866832, "tags": {"amenity": "restaurant", "cuisine": "italian", "name": "casa leone"}}], "\u0411\u0430\u0442\u0438\u043d\u0446\u0438": [{"type": "node", "id": 3751301960, "lat": 41.9191256, "lon": 21.4591155, "tags": {"amenity": "restaurant", "cuisine": "regional", "name": "\u0420\u0435\u0441\u0442\u043e\u0440\u0430\u043d \u0411\u0435\u043b\u0430", "name:en": "Restaurant Bella"}}], "\u0412\u043b\u0430\u0434\u0435\u0432\u0446\u0438": [{"type": "node", "id": 3784770415, "lat": 41.5162501, "lon": 22.6153456, "tags": {"amenity": "restaurant", "name": "\u0408\u0430\u0432\u043e\u0440\u0428\u043f\u0435\u0434"}}], "\u041b\u0430\u043a\u0430\u0432\u0438\u0446\u0430": [{"type": "node", "id": 3786106943, "lat": 41.6337365, "lon": 22.2451062, "tags": {"amenity": "restaurant", "name": "\u0420\u0438\u0431\u043d\u0438\u043a"}}], "\u0411\u0440\u0430\u0437\u0434\u0430": [{"type": "node", "id": 3932033588, "lat": 42.0818924, "lon": 21.4037096, "tags": {"amenity": "restaurant", "cuisine": "pizza", "name": "Ribimiluss"}}], "\u0411\u0440\u043e\u0434\u0435\u0446": [{"type": "node", "id": 4110147399, "lat": 42.1382444, "lon": 21.4448873, "tags": {"amenity": "restaurant", "cuisine": "balkan", "name": "\u0415\u0442\u043d\u043e \u043a\u0443\u0458\u043d\u0430 \u0412\u0438\u043b\u0430 \u0415\u043b\u0435\u043d\u0430"}}], "\u0427\u0435\u0433\u0440\u0430\u043d\u0435": [{"type": "node", "id": 4190335990, "lat": 41.8453568, "lon": 20.9734955, "tags": {"amenity": "restaurant", "name": "Restaurant Oaza"}}], "\u0412\u0435\u0432\u0447\u0430\u043d\u0438": [{"type": "node", "id": 4252577296, "lat": 41.2357204, "lon": 20.5959852, "tags": {"amenity": "restaurant", "name": "Via Ignatia"}}, {"type": "node", "id": 5956366686, "lat": 41.2397324, "lon": 20.5887025, "tags": {"amenity": "restaurant", "cuisine": "regional;kebab;balkan", "name": "Pectopahot"}}, {"type": "node", "id": 5956379085, "lat": 41.2401095, "lon": 20.5881905, "tags": {"amenity": "restaurant", "cuisine": "regional;local;balkan", "internet_access": "wlan", "name": "Kutmi\u010devica"}}, {"type": "node", "id": 7184137085, "lat": 41.2404084, "lon": 20.5878142, "tags": {"addr:postcode": "6335", "addr:street": "\u0412\u0435\u0432\u0447\u0430\u043d\u0438", "amenity": "restaurant", "cuisine": "barbecue;balkan", "internet_access": "wlan", "name": "\u0420\u0435\u0441\u0442\u043e\u0440\u0430\u043d \u0420\u0435\u043f\u0443\u0431\u043b\u0438\u043a\u0430", "name:en": "Restaurant Republika", "opening_hours": "Mo-Su 10:00-23:00"}}], "\u0421\u043e\u043f\u0438\u0448\u0442\u0435": [{"type": "node", "id": 4253210327, "lat": 41.9495659, "lon": 21.4212497, "tags": {"amenity": "restaurant", "name": "\u041c\u0443\u043b\u0438\u043d\u043e \u0413\u0430\u0440\u0434\u0435\u043d"}}], "\u041f\u0435\u0442\u0440\u043e\u0432\u0435\u0446": [{"type": "node", "id": 4292369647, "lat": 41.9371686, "lon": 21.6186125, "tags": {"amenity": "restaurant", "cuisine": "chicken;kebab;grill;local;balkan", "internet_access": "wlan", "name": "Kaj Dzek"}}], "\u041c\u0430\u0432\u0440\u043e\u0432\u0438 \u0410\u043d\u043e\u0432\u0438": [{"type": "node", "id": 4405634704, "lat": 41.7018616, "lon": 20.7573957, "tags": {"amenity": "restaurant", "name": "\u0420\u0435\u0441\u0442\u043e\u0440\u0430\u043d \u041c\u0430\u043b \u041e\u0434\u043c\u043e\u0440", "name:de": "mal odmor"}}, {"type": "node", "id": 4408677899, "lat": 41.7014251, "lon": 20.756666, "tags": {"amenity": "restaurant", "name": "\u041a\u0430\u0458 \u0422\u0435\u0442\u043a\u0430 \u0412\u0438\u043a\u0438"}}, {"type": "node", "id": 8946930217, "lat": 41.7026712, "lon": 20.7579455, "tags": {"amenity": "restaurant", "name": "Lounge Bar Mavrovo"}}], "\u0408\u0430\u043d\u043a\u043e\u0432\u0435\u0446": [{"type": "node", "id": 4422047259, "lat": 41.1085785, "lon": 21.0067043, "tags": {"amenity": "restaurant", "name": "\u0415\u0442\u043d\u043e \u041a\u0443\u045c\u0430"}}], "\u041c\u0430\u0440\u0438\u043d\u043e": [{"type": "node", "id": 4457471314, "lat": 41.9864102, "lon": 21.5888229, "tags": {"amenity": "restaurant", "kitchen": "local", "name": "Royal Food Zlate"}}], "\u0420\u043e\u0441\u0442\u0443\u0448\u0435": [{"type": "node", "id": 4489456010, "lat": 41.6226607, "lon": 20.607177, "tags": {"addr:city": "Mavrovo and Rostushe", "addr:postcode": "1254", "amenity": "restaurant", "bar": "yes", "capacity": "200", "cuisine": "regional;coffee_shop;sandwich;ice_cream;international;turkish;steak_house", "description": "A memorial house of the\nRENOWED MIYAKS HISTORICAL TRADITION\nOnce you have passed the main entrance gates, you will discover a splendid outdoor terrace, and a ground floor giving you the first impressions of the Miyaks traditions and lifestyle.", "diet:egg_free": "yes", "diet:fruitarian": "yes", "diet:lacto_vegetarian": "yes", "diet:lactose_free": "yes", "diet:organic": "yes", "diet:sugar_free": "yes", "diet:vegan": "yes", "diet:vegetarian": "yes", "email": "contact@kukjanamijacite.mk", "internet_access": "wlan", "internet_access:fee": "no", "level": "2", "name": "House of Miyaks Ethno Restaurant", "name:mk": "\u041a\u0443\u045c\u0430 \u043d\u0430 \u041c\u0438\u0458\u0430\u0446\u0438\u0442\u0435", "opening_hours": "Mo-Su 09:00-21:00", "outdoor_seating": "yes", "phone": "+389 070 378 333", "smoking": "isolated", "takeaway": "yes", "website": "http://kukjanamijacite.mk", "wheelchair": "yes"}}], "\u041a\u0430\u043c\u0435\u045a\u0430\u043d\u0435": [{"type": "node", "id": 4502450789, "lat": 41.9444009, "lon": 20.9272881, "tags": {"addr:postcode": "1221", "addr:street": "101", "amenity": "restaurant", "name": "Restoran Elita", "name:en": "Restaurant Elita", "name:mk": "Restoran Elita", "name:sq": "Restoranti Elita"}}, {"type": "node", "id": 4502469595, "lat": 41.9485098, "lon": 20.929929, "tags": {"amenity": "restaurant", "name": "Niki", "name:en": "Niki", "name:mk": "Niki", "name:sq": "\u00cbmb\u00ebltore NIKI"}}], "\u0414\u043e\u043b\u043d\u043e \u041f\u0430\u043b\u0447\u0438\u0448\u0442\u0435": [{"type": "node", "id": 4502463695, "lat": 41.976507, "lon": 20.9398801, "tags": {"amenity": "restaurant", "name": "Nes Komerc", "name:en": "Nes Komerc", "name:mk": "Nes Komerc", "name:sq": "Nes Komerc"}}], "\u0421\u043c\u043e\u043b\u0430\u0440\u0438": [{"type": "node", "id": 4530818689, "lat": 41.3709709, "lon": 22.90042, "tags": {"addr:postcode": "2400", "addr:street": "Smolare", "amenity": "restaurant", "cuisine": "fish;barbecue;local;grill", "email": "manager@atlantis.com.mk", "internet_access": "wlan", "name": "\u0420\u0435\u0441\u0442\u043e\u0440\u0430\u043d \u0410\u0442\u043b\u0430\u043d\u0442\u0438\u0421 \u0421\u043c\u043e\u043b\u0430\u0440\u0441\u043a\u0438 \u0412\u043e\u0434\u043e\u043f\u0430\u0442", "name:en": "Restaurant AtlantiS Smolare Waterfall", "name:mk": "\u0420\u0435\u0441\u0442\u043e\u0440\u0430\u043d \u0410\u0442\u043b\u0430\u043d\u0442\u0438\u0421 \u0421\u043c\u043e\u043b\u0430\u0440\u0441\u043a\u0438 \u0412\u043e\u0434\u043e\u043f\u0430\u0442", "opening_hours": "Mo-Su 10:00-22:00", "operator": "Sashko Donchovski", "phone": "38978314212", "website": "http://www.atlantis.mk"}}, {"type": "node", "id": 6452647277, "lat": 41.3881711, "lon": 22.8968221, "tags": {"amenity": "restaurant", "name": "\u041b\u0435\u0431\u0435\u0434\u043e\u0432\u043e \u0435\u0437\u0435\u0440\u043e"}}], "\u0422\u0435\u0430\u0440\u0446\u0435": [{"type": "node", "id": 4587348695, "lat": 42.0755301, "lon": 21.0514706, "tags": {"amenity": "restaurant", "name": "\u0420\u0435\u0441\u0442\u043e\u0440\u0430\u043d \u0426\u0443\u0446\u043b\u0430", "name:en": "Restoran Cucla", "name:mk": "\u0420\u0435\u0441\u0442\u043e\u0440\u0430\u043d \u0426\u0443\u0446\u043b\u0430"}}, {"type": "node", "id": 4594264491, "lat": 42.072656, "lon": 21.0512358, "tags": {"amenity": "restaurant", "name": "\u0420\u0435\u0441\u0442\u043e\u0440\u0430\u043d \u0422\u0440\u0438\u043e", "name:en": "Restoran Trio", "name:mk": "\u0420\u0435\u0441\u0442\u043e\u0440\u0430\u043d \u0422\u0440\u0438\u043e"}}], "\u0412\u0440\u0443\u0442\u043e\u043a": [{"type": "node", "id": 4614149399, "lat": 41.765046, "lon": 20.8375411, "tags": {"amenity": "restaurant", "name": "\u0411\u0443\u0440\u0438\u043c\u0438 \u0422\u0440\u0435"}}, {"type": "node", "id": 4614149418, "lat": 41.7653321, "lon": 20.8363637, "tags": {"amenity": "restaurant", "name": "\u041f\u0430\u043d\u043e\u0440\u0430\u043c\u0430"}}, {"type": "node", "id": 4771141151, "lat": 41.7704206, "lon": 20.8459093, "tags": {"amenity": "restaurant", "name": "Riben Restoran Bigor"}}], "\u0421\u0442\u0435\u045a\u0435": [{"type": "node", "id": 4642412989, "lat": 40.9390733, "lon": 20.9144193, "tags": {"abandoned": "yes", "amenity": "restaurant", "name": "Beach Bar Mystic"}}], "\u0417\u0432\u0435\u0433\u043e\u0440": [{"type": "node", "id": 4683222726, "lat": 41.9752689, "lon": 22.8186239, "tags": {"addr:city": "Delchevo", "addr:postcode": "2320", "addr:street": "Road Route A3", "amenity": "restaurant", "capacity": "100", "cuisine": "seafood", "delivery": "yes", "name": "\u0420\u0438\u0431\u043d\u0438\u043a \u0412\u043e\u0434\u0435\u043d\u0438\u0446\u0430", "name:en": "Vodenica Fish Restaurant", "opening_hours": "08:00 - 00:00", "outdoor_seating": "yes", "smoking": "outside", "takeaway": "yes"}}], "\u0411\u0443\u043d\u0430\u0440\u045f\u0438\u043a": [{"type": "node", "id": 4740748226, "lat": 41.9953625, "lon": 21.6126147, "tags": {"amenity": "restaurant", "name": "\u041a\u043e\u043d\u0430\u043a \u0408\u0430\u0437\u0431\u0438\u045a\u0435", "name:en": "Jazbinje House", "name:mk": "\u041a\u043e\u043d\u0430\u043a \u0408\u0430\u0437\u0431\u0438\u045a\u0435"}}], "\u0411\u0440\u0430\u0458\u0447\u0438\u043d\u043e": [{"type": "node", "id": 4804666922, "lat": 40.9075981, "lon": 21.1624357, "tags": {"amenity": "restaurant", "cuisine": "local", "name": "Vila Raskrsnica", "operator": "Milka"}}], "\u0409\u0443\u0431\u0430\u043d\u0438\u0448\u0442\u0430": [{"type": "node", "id": 4884908023, "lat": 40.9141308, "lon": 20.7410279, "tags": {"amenity": "restaurant", "name": "\u0421\u0432\u0435\u0442\u0438 \u041d\u0430\u0443\u043c", "name:en": "St. Nahum"}}], "\u041f\u0440\u0435\u0442\u043e\u0440": [{"type": "node", "id": 4945457423, "lat": 40.9721129, "lon": 21.0571809, "tags": {"amenity": "restaurant", "name": "Proper", "name:en": "Proper", "name:mk": "Proper"}}, {"type": "node", "id": 7724657485, "lat": 40.9718757, "lon": 21.0605131, "tags": {"amenity": "restaurant", "cuisine": "balkan", "internet_access": "wlan", "name": "Sunset Restaurant", "name:en": "Sunset Club Restaurant"}}], "\u0412\u0438\u0437\u0431\u0435\u0433\u043e\u0432\u043e": [{"type": "node", "id": 5064700321, "lat": 42.0353232, "lon": 21.404415, "tags": {"addr:city": "\u0412\u0438\u0437\u0431\u0435\u0433\u043e\u0432\u043e", "addr:housenumber": "148", "addr:street": "Ul \u041a\u0430\u0447\u0430\u043d\u0438\u0447\u043a\u0438 \u043f\u0430\u0442", "amenity": "restaurant", "name": "\u0410\u043b\u0438\u043a\u0430\u0441", "name:en": "Alikas", "name:mk": "\u0410\u043b\u0438\u043a\u0430\u0441"}}], "\u0413\u043b\u0443\u043c\u043e\u0432\u043e": [{"type": "node", "id": 5074216083, "lat": 41.9908973, "lon": 21.316191, "tags": {"amenity": "restaurant", "email": "contact@erbi.com.mk", "name": "Er & Bi", "phone:1": "+389 71 20 20 01", "phone:2": "+389 71 20 20 02", "website": "www.erbi.com.mk"}}], "\u041c\u043e\u0440\u0430\u043d\u0438": [{"type": "node", "id": 5123724239, "lat": 41.9150979, "lon": 21.5712443, "tags": {"amenity": "restaurant", "name": "\u0413\u0440\u0438\u043d \u0412\u0438\u043b\u0438\u045f", "name:en": "Green Village", "opening_hours": "Mo-Su 11:00-23:00"}}], "\u041f\u0430\u0448\u0430\u045f\u0438\u043a\u043e\u0432\u043e": [{"type": "node", "id": 5614557098, "lat": 41.9945499, "lon": 22.3572149, "tags": {"amenity": "restaurant", "name": "\u041e\u0441\u043e\u0433\u043e\u0432\u0441\u043a\u0430 \u041a\u0443\u045c\u0430", "name:en": "Osogovska Kukja"}}], "\u0410\u043b\u0434\u0438\u043d\u0446\u0438": [{"type": "node", "id": 5798868260, "lat": 41.7918174, "lon": 21.4237345, "tags": {"amenity": "restaurant", "name": "\u041f\u043b\u0430\u043d\u0438\u043d\u0430\u0440\u0441\u043a\u0438 \u0434\u043e\u043c \u041a\u0430\u0440\u0430\u045f\u0438\u0446\u0430"}}], "\u0413\u043e\u0441\u0442\u0438\u0432\u0430\u0440": [{"type": "node", "id": 5798936014, "lat": 41.7922445, "lon": 20.9082428, "tags": {"amenity": "restaurant", "name": "\u0420\u0435\u0441\u0442\u043e\u0440\u0430\u043d\u0442 \u0412\u0438\u0442\u0430 \u0410\u0431\u0438", "name:en": "Restaurant Vita Abi", "name:tr": "Vita Abi Mutfa\u011f\u0131"}}, {"type": "node", "id": 6388918787, "lat": 41.7928399, "lon": 20.9090036, "tags": {"amenity": "restaurant", "name": "Familijar Restaurant", "name:en": "Family Restaurant"}}, {"type": "node", "id": 7783659086, "lat": 41.7912806, "lon": 20.9085717, "tags": {"amenity": "restaurant", "name": "Burektore Saq"}}], "\u041c\u0430\u0432\u0440\u043e\u0432\u043e": [{"type": "node", "id": 5833924459, "lat": 41.6510336, "lon": 20.7362858, "tags": {"amenity": "restaurant", "name": "Glamour"}}], "\u0412\u0435\u043b\u0435\u0448\u0442\u0430": [{"type": "node", "id": 5834871927, "lat": 41.2239348, "lon": 20.6516188, "tags": {"amenity": "restaurant", "name": "Grand restaurant"}}], "\u041e\u043f\u0435\u043d\u0438\u0446\u0430": [{"type": "node", "id": 5896644185, "lat": 41.2434073, "lon": 20.8894257, "tags": {"addr:postcode": "6036", "addr:street": "Kuratica", "amenity": "restaurant", "cuisine": "balkan", "email": "dimodedo@yahoo.com", "internet_access": "wlan", "name": "Dedo Dimo", "name:en": "Dedo (Grandfather) Dimo", "opening_hours": "Mo-Su 12:00-00:00", "phone": "+38946279595", "website": "http://www.dedodimo.mk"}}], "\u0413\u043e\u0440\u043d\u043e \u0414\u043e\u0431\u0440\u0435\u043d\u043e\u0435\u0446": [{"type": "node", "id": 5911332251, "lat": 41.5106535, "lon": 20.8839683, "tags": {"amenity": "restaurant", "cuisine": "fish", "int_name": "Riben Restoran Dobrenoec", "name": "\u0420\u0438\u0431\u0435\u043d \u0420\u0435\u0441\u0442\u043e\u0440\u0430\u043d \u0414\u043e\u0431\u0440\u0435\u043d\u043e\u0435\u0446", "name:en": "Fish Restaurant Dobrenoec"}}, {"type": "node", "id": 5911332404, "lat": 41.5034917, "lon": 20.8928941, "tags": {"amenity": "restaurant", "name": "\u0424\u0443\u0440\u043d\u0430", "name:en": "Furna"}}], "\u0422\u0435\u043e\u0432\u043e": [{"type": "node", "id": 5926230349, "lat": 41.5475438, "lon": 21.6320595, "tags": {"amenity": "restaurant", "cuisine": "fish", "name": "\u0420\u0438\u0431\u043d\u0438\u043a \u0420\u0435\u0441\u0442\u043e\u0440\u0430\u043d \u041e\u043c\u043e\u0440\u0430\u043d\u0438", "name:en": "Fish Restaurant Omorani"}}], "\u0413\u0430\u0458\u0440\u0435": [{"type": "node", "id": 6359901288, "lat": 42.0189508, "lon": 20.9351278, "tags": {"amenity": "restaurant", "name": "Driada"}}], "\u0421\u043b\u0438\u0432\u043d\u0438\u0446\u0430": [{"type": "node", "id": 6549925330, "lat": 40.9538093, "lon": 21.0712879, "tags": {"amenity": "restaurant", "name": "Coca Beach Bar"}}], "\u0411\u0435\u043b\u0430\u043d\u043e\u0432\u0446\u0435": [{"type": "node", "id": 6551495317, "lat": 42.1683969, "lon": 21.5699754, "tags": {"amenity": "restaurant", "int_name": "Panorama", "name": "\u041f\u0430\u043d\u043e\u0440\u0430\u043c\u0430", "name:mk": "\u041f\u0430\u043d\u043e\u0440\u0430\u043c\u0430"}}], "\u0418\u0432\u0430\u045a\u0435\u0432\u0446\u0438": [{"type": "node", "id": 7500424555, "lat": 41.204736, "lon": 21.3563369, "tags": {"amenity": "restaurant", "internet_access:type": "wifi", "name": "Kaj Zlate", "opening_hours": "Mo-Su 11:00-00:00"}}], "\u041f\u0430\u0442\u0438\u0448\u043a\u0430 \u0420\u0435\u043a\u0430": [{"type": "node", "id": 7888434356, "lat": 41.8128659, "lon": 21.3137576, "tags": {"amenity": "restaurant", "name": "\u0420\u0435\u043a\u0430"}}], "\u0414\u0440\u0430\u0447\u0435\u0432\u043e": [{"type": "node", "id": 8434486650, "lat": 41.939595, "lon": 21.5156883, "tags": {"air_conditioning": "yes", "amenity": "restaurant", "cuisine": "pizza;italian", "name": "PIZZA Bellucci", "opening_hours": "Mo-Sa 10:00-00:00", "outdoor_seating": "yes", "payment:cash": "yes", "payment:credit_cards": "yes", "payment:mastercard": "yes", "payment:visa": "yes", "payment:visa_electron": "yes", "phone": "+389 77 838 838", "smoking": "outside", "takeaway": "yes", "website": "https://www.facebook.com/232325386663/posts/%D0%BF%D0%B8%D1%86%D0%B5%D1%80%D0%B8%D1%98%D0%B0-pizza-bellucci-%D0%B4%D1%80%D0%B0%D1%87%D0%B5%D0%B2%D0%BE%D0%B1%D0%B5%D1%81%D0%BF%D0%BB%D0%B0%D1%82%D0%BD%D0%B0-%D0%B4%D0%BE%D1%81%D1%82%D0%B0%D0%B2%D0%B0-%D0%B7%"}}], "\u0420\u0430\u0434\u043e\u0436\u0434\u0430": [{"type": "node", "id": 8792003923, "lat": 41.0975365, "lon": 20.6352894, "tags": {"amenity": "restaurant", "contact:phone": "+389 78 514 169", "contact:website": "https://www.facebook.com/pages/Restorant%20Ezerski%20Raj,%20Radozda./163168423864697/", "cuisine": "fish", "name": "\u0415\u0437\u0435\u0440\u0441\u043a\u0438 \u0420\u0430\u0458"}}], "\u0413\u0440\u0430\u0434\u0441\u043a\u043e": [{"type": "node", "id": 8837787973, "lat": 41.578961, "lon": 21.9437258, "tags": {"amenity": "restaurant", "name": "Kaj \u043b\u0430\u043a\u0438"}}], "\u0414\u0438\u0445\u043e\u0432\u043e": [{"type": "node", "id": 8868720618, "lat": 41.0345273, "lon": 21.2626435, "tags": {"amenity": "restaurant", "name": "Villa Vista", "phone": "+38947220050"}}]}